EUBWID,label,samplePointID,yearDesignated,yearDedesignated,district,county,country,easting,northing,lat,long,seasonStartDate,seasonFinishDate,pollutionRiskForecasting,appointedSewerageUndertaker,stepChange,stepChangeDate
ukc1101-06000,Seaton Carew North,06000,1988,"",Hartlepool,"",England,452601,530257,54.6646667372081,-1.18604276684644,2022-05-01,2022-09-30,true,Northumbrian Water Limited,"",""
ukc1101-06100,Seaton Carew Centre,06100,1988,"",Hartlepool,"",England,452950,529732,54.6599127717455,-1.18072760536662,2022-05-01,2022-09-30,true,Northumbrian Water Limited,"",""
ukc1101-06200,Seaton Carew North Gare,06200,1988,"",Hartlepool,"",England,454000,528600,54.6496298348782,-1.16466146681862,2022-05-01,2022-09-30,true,Northumbrian Water Limited,"",""
ukc1202-06300,Redcar Coatham,06300,1988,"",Redcar and Cleveland,"",England,459400,525600,54.6220674831445,-1.08159305534821,2022-05-01,2022-09-30,false,Northumbrian Water Limited,"",""
ukc1202-06400,Redcar Lifeboat Station,06400,1988,"",Redcar and Cleveland,"",England,460748,525394,54.620056404635,-1.06076199971504,2022-05-01,2022-09-30,true,Northumbrian Water Limited,"",""
ukc1202-06500,Redcar Granville,06500,1988,"",Redcar and Cleveland,"",England,461300,525100,54.6173480911732,-1.0522761465974,2022-05-01,2022-09-30,true,Northumbrian Water Limited,"",""
ukc1202-06600,Redcar Stray,06600,1988,"",Redcar and Cleveland,"",England,462500,523800,54.6055201971506,-1.03397313354301,2022-05-01,2022-09-30,true,Northumbrian Water Limited,"",""
ukc1202-06650,Marske Sands,06650,1992,"",Redcar and Cleveland,"",England,463600,523200,54.5999919286241,-1.01707668794072,2022-05-01,2022-09-30,true,Northumbrian Water Limited,"",""
ukc1202-06700,Saltburn,06700,1988,"",Redcar and Cleveland,"",England,466677,521775,54.5867919627395,-0.969779715531797,2022-05-01,2022-09-30,true,Northumbrian Water Limited,"",""
ukc1404-05700,Seaham Hall Beach,05700,1988,"",County Durham,"",England,442380,550825,54.8504496557177,-1.34149803443412,2022-05-01,2022-09-30,true,Northumbrian Water Limited,"",""
ukc1404-05800,Seaham Beach,05800,1988,"",County Durham,"",England,442600,550500,54.8475106600731,-1.33811969262655,2022-05-01,2022-09-30,true,Northumbrian Water Limited,"",""
ukc1404-05900,Crimdon,05900,1988,"",County Durham,"",England,448482,537268,54.728078401518,-1.24873218512617,2022-05-01,2022-09-30,true,Northumbrian Water Limited,"",""
ukc2101-04000,Low Newton,04000,1988,"",Northumberland,"",England,424380,624450,55.5132163987303,-1.61551676459494,2022-05-01,2022-09-30,false,Northumbrian Water Limited,"",""
ukc2101-04200,Warkworth,04200,1988,"",Northumberland,"",England,425920,606429,55.3512136840278,-1.59280027513502,2022-05-01,2022-09-30,false,Northumbrian Water Limited,"",""
ukc2101-04250,Amble Links,04250,1991,"",Northumberland,"",England,428500,603600,55.3256518430612,-1.55240065878181,2022-05-01,2022-09-30,false,Northumbrian Water Limited,"",""
ukc2102-03600,Spittal,03600,1988,"",Northumberland,"",England,400800,651500,55.7568683458198,-1.9888393795735,2022-05-01,2022-09-30,true,Northumbrian Water Limited,"",""
ukc2102-03700,Bamburgh Castle,03700,1988,"",Northumberland,"",England,418500,635300,55.6109624803421,-1.70790347736216,2022-05-01,2022-09-30,false,Northumbrian Water Limited,"",""
ukc2102-03800,Seahouses North,03800,1988,"",Northumberland,"",England,421100,633000,55.5901915983294,-1.66680589716163,2022-05-01,2022-09-30,false,Northumbrian Water Limited,"",""
ukc2102-03900,Beadnell,03900,1988,"",Northumberland,"",England,423300,628400,55.5487603048552,-1.63228751096927,2022-05-01,2022-09-30,false,Northumbrian Water Limited,"",""
ukc2103-04600,Blyth South Beach,04600,1988,"",Northumberland,"",England,432200,579500,55.1088743553324,-1.49682827055485,2022-05-01,2022-09-30,true,Northumbrian Water Limited,"",""
ukc2103-04700,Seaton Sluice,04700,1988,"",Northumberland,"",England,433400,577100,55.0872297531564,-1.47830016992466,2022-05-01,2022-09-30,true,Northumbrian Water Limited,"",""
ukc2104-04280,Druridge Bay North,04280,2008,"",Northumberland,"",England,427500,599750,55.2911145717199,-1.56853575551603,2022-05-01,2022-09-30,true,Northumbrian Water Limited,"",""
ukc2104-04300,Druridge Bay South,04300,1988,"",Northumberland,"",England,429100,594100,55.2402551088777,-1.54392384292723,2022-05-01,2022-09-30,false,Northumbrian Water Limited,"",""
ukc2106-04400,Newbiggin North,04400,1988,"",Northumberland,"",England,431280,587900,55.1844121199812,-1.51032560822061,2022-05-01,2022-09-30,false,Northumbrian Water Limited,"",""
ukc2106-04500,Newbiggin South,04500,1988,"",Northumberland,"",England,431000,587280,55.1788586358132,-1.51479031216353,2022-05-01,2022-09-30,false,Northumbrian Water Limited,"",""
ukc2203-04800,Whitley Bay,04800,1988,"",North Tyneside,"",England,435550,572850,55.0488919996071,-1.44514764351662,2022-05-01,2022-09-30,false,Northumbrian Water Limited,"",""
ukc2203-04900,Tynemouth Cullercoats,04900,1988,"",North Tyneside,"",England,436465,571287,55.0347813635908,-1.43102643087106,2022-05-01,2022-09-30,true,Northumbrian Water Limited,"",""
ukc2203-05000,Tynemouth Long Sands North,05000,1988,"",North Tyneside,"",England,436619,570803,55.0304210257448,-1.4286789481503,2022-05-01,2022-09-30,false,Northumbrian Water Limited,"",""
ukc2203-05100,Tynemouth Long Sands South,05100,1988,"",North Tyneside,"",England,436970,570100,55.024078226215,-1.42327882219309,2022-05-01,2022-09-30,false,Northumbrian Water Limited,"",""
ukc2203-05200,Tynemouth King Edwards Bay,05200,1988,"",North Tyneside,"",England,437248,569573,55.0193221136079,-1.41899913650401,2022-05-01,2022-09-30,false,Northumbrian Water Limited,"",""
ukc2204-05300,South Shields,05300,1988,"",South Tyneside,"",England,437900,567400,54.9997471932089,-1.4090895613675,2022-05-01,2022-09-30,false,Northumbrian Water Limited,"",""
ukc2204-05400,Marsden,05400,1988,"",South Tyneside,"",England,440000,565000,54.978017896067,-1.3765981797728,2022-05-01,2022-09-30,true,Northumbrian Water Limited,"",""
ukc2300-05500,Seaburn - Sunderland,05500,1988,"",Sunderland,"",England,440700,560500,54.9375258890573,-1.36629859711629,2022-05-01,2022-09-30,false,Northumbrian Water Limited,"",""
ukc2300-05600,Roker - Sunderland,05600,1988,"",Sunderland,"",England,440800,559190,54.9257464776574,-1.3649232933657,2022-05-01,2022-09-30,false,Northumbrian Water Limited,"",""
ukd1101-46000,Allonby South,46000,1988,2019,Allerdale,Cumbria,England,306339,539751,54.7439601786834,-3.45645360335536,2019-05-01,2019-09-30,true,United Utilities Water Limited,"",""
ukd1101-46100,Allonby,46100,1988,"",Allerdale,Cumbria,England,307800,542400,54.7680362472678,-3.43462529244341,2022-05-01,2022-09-30,true,United Utilities Water Limited,"",""
ukd1101-46300,Silloth,46300,1988,2018,Allerdale,Cumbria,England,309656,553195,54.8653453662774,-3.40914236147312,2017-05-01,2017-09-30,true,United Utilities Water Limited,"",""
ukd1102-44200,Walney Biggar Bank,44200,1988,"",Barrow-in-Furness,Cumbria,England,317800,467300,54.0950168013411,-3.25838129442648,2022-05-01,2022-09-30,true,United Utilities Water Limited,"Step Change in water quality from 30/04/2013, due to improvements made to Water plc assets.",2013-04-30
ukd1102-44300,Walney Sandy Gap,44300,1988,"",Barrow-in-Furness,Cumbria,England,317500,468100,54.1021569927356,-3.26318566673305,2022-05-01,2022-09-30,true,United Utilities Water Limited,"Step Change in water quality from 30/04/2013, due to improvements made to Water plc assets.",2013-04-30
ukd1102-44400,Walney West Shore,44400,1988,"",Barrow-in-Furness,Cumbria,England,316984,470183,54.120782261168,-3.2716311703482,2022-05-01,2022-09-30,true,United Utilities Water Limited,"Step Change in water quality from 30/04/2013, due to improvements made to Water plc assets.",2013-04-30
ukd1103-44800,Haverigg,44800,1988,"",Copeland,Cumbria,England,316000,477800,54.1890700507472,-3.28882375455891,2022-05-01,2022-09-30,true,United Utilities Water Limited,"Step Change in water quality from 30/04/2015, due to improvements made to Water plc assets.",2015-04-30
ukd1103-45200,Silecroft,45200,1988,"",Copeland,Cumbria,England,312000,481200,54.218947055813,-3.35110251563719,2022-05-01,2022-09-30,false,United Utilities Water Limited,"",""
ukd1103-45600,Seascale,45600,1988,"",Copeland,Cumbria,England,303400,501000,54.3952825742987,-3.48935798634343,2022-05-01,2022-09-30,false,United Utilities Water Limited,"",""
ukd1103-45920,St Bees,45920,1988,"",Copeland,Cumbria,England,295900,511700,54.4899256268899,-3.60858868965697,2022-05-01,2022-09-30,true,United Utilities Water Limited,"",""
ukd1203-45625,"Windermere, Lakeside YMCA",45625,1998,"",South Lakeland,"",England,337528,489847,54.30039495081625,-2.9614629622469,2022-05-01,2022-09-30,false,United Utilities Water Limited,"",""
ukd1203-45650,"Windermere, Millerground Landing",45650,1998,"",South Lakeland,"",England,340178,498749,54.3807,-2.9225,2022-05-01,2022-09-30,false,United Utilities Water Limited,"",""
ukd1203-45675,"Windermere, Rayrigg Meadow",45675,2015,"",South Lakeland,"",England,340177,498465,54.3781537315643,-2.92249644240972,2022-05-01,2022-09-30,false,United Utilities Water Limited,"",""
ukd1203-45700,"Windermere, Fellfoot",45700,1998,"",South Lakeland,"",England,337990,486960,54.274516938995,-2.95378173858218,2022-05-01,2022-09-30,false,United Utilities Water Limited,"",""
ukd4200-42100,Blackpool South,42100,1988,"",Blackpool,"",England,330326,433222,53.7906362899484,-3.05910494392652,2022-05-01,2022-09-30,true,United Utilities Water Limited,"Step Change in water quality from 05/05/2014, due to improvements made to Water plc assets.",2014-05-05
ukd4200-42300,Blackpool Central,42300,1988,"",Blackpool,"",England,330536,434556,53.8026522997753,-3.05621915051379,2022-05-01,2022-09-30,true,United Utilities Water Limited,"",""
ukd4200-42500,Blackpool North,42500,1988,"",Blackpool,"",England,330534,436055,53.8161226569306,-3.05658832625312,2022-05-01,2022-09-30,true,United Utilities Water Limited,"Step Change in water quality from 30/04/2015, due to improvements made to Water plc assets.",2015-04-30
ukd4200-42600,Bispham,42600,1988,"",Blackpool,"",England,330700,439700,53.8489001908846,-3.05489054230437,2022-05-01,2022-09-30,true,United Utilities Water Limited,"",""
ukd4303-41800,St Annes,41800,1988,"",Fylde,Lancashire,England,331491,428585,53.7491,-3.0404,2022-05-01,2022-09-30,true,United Utilities Water Limited,"Step Change in water quality from 05/05/2014, due to improvements made to Water plc assets.",2014-05-05
ukd4303-41900,St Annes North,41900,1988,"",Fylde,Lancashire,England,330816,429775,53.759717295224,-3.05087821759494,2022-05-01,2022-09-30,true,United Utilities Water Limited,"Step Change in water quality from 05/05/2014, due to improvements made to Water plc assets.",2014-05-05
ukd4305-43260,Morecambe South,43260,1988,"",Lancaster,"",England,342746,464454,54.0728262826181,-2.87646762415598,2022-05-01,2022-09-30,true,United Utilities Water Limited,"",""
ukd4305-43550,Morecambe North,43550,1988,"",Lancaster,"",England,343781,464956,54.0774517391814,-2.86074604518309,2022-05-01,2022-09-30,true,United Utilities Water Limited,"",""
ukd4312-42800,Cleveleys,42800,1988,"",Wyre,Lancashire,England,331200,443300,53.8813176293953,-3.04810034853083,2022-05-01,2022-09-30,true,United Utilities Water Limited,"",""
ukd4312-43000,Fleetwood,43000,1988,"",Wyre,Lancashire,England,333120,448310,53.9265908501585,-3.0199946507103,2022-05-01,2022-09-30,true,United Utilities Water Limited,"Step Change in water quality from 30/04/2015, due to improvements made to Water plc assets.",2015-04-30
ukd5300-41200,Formby,41200,1988,"",Sefton,"",England,326800,406300,53.5482180476627,-3.10625887520372,2022-05-01,2022-09-30,false,United Utilities Water Limited,"",""
ukd5300-41300,Ainsdale,41300,1988,"",Sefton,"",England,329700,412900,53.6079274110244,-3.06398779831433,2022-05-01,2022-09-30,true,United Utilities Water Limited,"",""
ukd5300-41500,Southport,41500,1988,"",Sefton,"",England,332200,417900,53.6531912376922,-3.02730139881767,2022-05-01,2022-09-30,true,United Utilities Water Limited,"Step Change in water quality from 05/05/2014, due to improvements made to Water plc assets.",2014-05-05
ukd5400-40750,West Kirby,40750,1991,"",Wirral,"",England,320710,386621,53.3704789298207,-3.19316576553089,2022-05-01,2022-09-30,false,United Utilities Water Limited,"",""
ukd5400-40800,Meols,40800,1988,"",Wirral,"",England,323000,390600,53.4065842825349,-3.15974278713184,2022-05-01,2022-09-30,true,United Utilities Water Limited,"",""
ukd5400-40900,Moreton,40900,1988,"",Wirral,"",England,325700,391800,53.417756050842,-3.11942028040805,2022-05-01,2022-09-30,true,United Utilities Water Limited,"",""
ukd5400-41000,Wallasey,41000,1988,"",Wirral,"",England,328526,393518,53.4335785280341,-3.07728292148699,2022-05-01,2022-09-30,false,United Utilities Water Limited,"",""
uke1200-07900,Flamborough South Landing,07900,1988,"",East Riding of Yorkshire,"",England,523124,469230,54.1042408129957,-0.118418582181931,2022-05-01,2022-09-30,false,Yorkshire Water Services Limited,"",""
uke1200-07950,"Danes Dyke, Flamborough",07950,1999,"",East Riding of Yorkshire,"",England,521592,469167,54.1040387873291,-0.141861015595605,2022-05-01,2022-09-30,false,Yorkshire Water Services Limited,"",""
uke1200-08000,Bridlington North Beach,08000,1988,"",East Riding of Yorkshire,"",England,518972,467175,54.0867564390065,-0.182691651026087,2022-05-01,2022-09-30,true,Yorkshire Water Services Limited,"Step Change in water quality from 31/03/2014, due to improvements made to Water plc assets.",2014-03-31
uke1200-08100,Bridlington South Beach,08100,1988,"",East Riding of Yorkshire,"",England,517948,466087,54.0772086100535,-0.1987449454745,2022-05-01,2022-09-30,true,Yorkshire Water Services Limited,"Step Change in water quality from 31/03/2014, due to improvements made to Water plc assets.",2014-03-31
uke1200-08200,Wilsthorpe,08200,1988,"",East Riding of Yorkshire,"",England,517407,464850,54.0662199286341,-0.207488045320685,2022-05-01,2022-09-30,true,Yorkshire Water Services Limited,"",""
uke1200-08300,Fraisthorpe,08300,1988,"",East Riding of Yorkshire,"",England,517030,462873,54.048555376331,-0.214023770608408,2022-05-01,2022-09-30,true,Yorkshire Water Services Limited,"",""
uke1200-08600,Skipsea,08600,1988,"",East Riding of Yorkshire,"",England,518837,453277,53.9619402767489,-0.190183487177237,2022-05-01,2022-09-30,false,Yorkshire Water Services Limited,"",""
uke1200-08700,Hornsea,08700,1988,"",East Riding of Yorkshire,"",England,520923,448005,53.9140984449623,-0.160491171265782,2022-05-01,2022-09-30,false,Yorkshire Water Services Limited,"",""
uke1200-08800,Tunstall,08800,1988,"",East Riding of Yorkshire,"",England,531960,431028,53.7589043022308,0.000169098125633,2022-05-01,2022-09-30,false,Yorkshire Water Services Limited,"",""
uke1200-08900,Withernsea,08900,1988,"",East Riding of Yorkshire,"",England,534413,427970,53.7308197034631,0.0360078045744803,2022-05-01,2022-09-30,false,Yorkshire Water Services Limited,"",""
uke1301-09000,Cleethorpes,09000,1988,"",North East Lincolnshire,"",England,531109,408508,53.5568266201182,-0.022225056616119,2022-05-01,2022-09-30,true,Anglian Water Services Limited,"",""
uke1301-09020,Humberston Fitties,09020,2011,"",North East Lincolnshire,"",England,533204,406158,53.5351901275229,0.008380462066923,2022-05-01,2022-09-30,true,Anglian Water Services Limited,"",""
uke2206-06800,Staithes,06800,1988,2016,Scarborough,North Yorkshire,England,478411,518828,54.558632956451,-0.789035905603602,2015-05-01,2015-09-30,false,Yorkshire Water Services Limited,"",""
uke2206-06900,Runswick Bay,06900,1988,"",Scarborough,North Yorkshire,England,481072,515889,54.5318083319323,-0.748706909633789,2022-05-01,2022-09-30,false,Yorkshire Water Services Limited,"",""
uke2206-07000,Sandsend,07000,1988,"",Scarborough,North Yorkshire,England,486400,512600,54.5013791247077,-0.66735843912176,2022-05-01,2022-09-30,true,Yorkshire Water Services Limited,"",""
uke2206-07100,Whitby,07100,1988,"",Scarborough,North Yorkshire,England,489191,511576,54.4916967106725,-0.624582898103651,2022-05-01,2022-09-30,false,Yorkshire Water Services Limited,"",""
uke2206-07200,Robin Hoods Bay,07200,1988,"",Scarborough,North Yorkshire,England,495339,504850,54.430153753772,-0.531866861240204,2022-05-01,2022-09-30,true,Yorkshire Water Services Limited,"",""
uke2206-07300,Scarborough North Bay,07300,1988,"",Scarborough,North Yorkshire,England,503769,489807,54.2933647936044,-0.407208402772809,2022-05-01,2022-09-30,false,Yorkshire Water Services Limited,"",""
uke2206-07400,Scarborough South Bay,07400,1988,"",Scarborough,North Yorkshire,England,504577,488564,54.2820335613278,-0.39523378210726,2022-05-01,2022-09-30,false,Yorkshire Water Services Limited,"Step Change in water quality from 31/03/2014, due to improvements made to Water plc assets.",2014-03-31
uke2206-07500,Cayton Bay,07500,1988,"",Scarborough,North Yorkshire,England,506775,484468,54.2447830381406,-0.362946553116245,2022-05-01,2022-09-30,false,Yorkshire Water Services Limited,"",""
uke2206-07600,Filey,07600,1988,"",Scarborough,North Yorkshire,England,512003,480524,54.2082372558266,-0.284226456988846,2022-05-01,2022-09-30,true,Yorkshire Water Services Limited,"",""
uke2206-07700,Reighton,07700,1988,"",Scarborough,North Yorkshire,England,514355,476227,54.1691179111152,-0.249814208841969,2022-05-01,2022-09-30,false,Yorkshire Water Services Limited,"",""
uke4100-08901,"Wharfe at Cromwheel, Ilkley",08901,2021,"",Bradford,"",England,412167,448432,53.9319,-1.8162,2022-05-01,2022-09-30,false,Yorkshire Water Services Limited,"",""
ukf1400-09750,Colwick Country Park (West Lake),09750,2013,"",City of Nottingham,"",England,460698,339020,52.9451435484652,-1.09815737913614,2022-05-01,2022-09-30,false,Severn Trent Water Limited,"",""
ukf3102-09100,Mablethorpe Town,09100,1988,"",East Lindsey,Lincolnshire,England,550842,385416,53.3441337592485,0.264365936524175,2022-05-01,2022-09-30,false,Anglian Water Services Limited,"",""
ukf3102-09200,Sutton-on-Sea,09200,1988,"",East Lindsey,Lincolnshire,England,552242,382171,53.3145880700532,0.283819713023732,2022-05-01,2022-09-30,false,Anglian Water Services Limited,"",""
ukf3102-09300,Moggs Eye,09300,1988,"",Lincolnshire,"",England,554698,377620,53.273002875866,0.318438394444607,2022-05-01,2022-09-30,false,Anglian Water Services Limited,"",""
ukf3102-09400,Anderby,09400,1988,"",Lincolnshire,"",England,555218,376164,53.2597742443608,0.325519540952037,2022-05-01,2022-09-30,false,Anglian Water Services Limited,"",""
ukf3102-09500,Chapel St Leonards,09500,1988,"",Chapel St. Leonards,Lincolnshire,England,556313,372177,53.2236446994753,0.339965691745724,2022-05-01,2022-09-30,false,Anglian Water Services Limited,"",""
ukf3102-09600,Ingoldmells South,09600,1988,"",East Lindsey,Lincolnshire,England,557350,368900,53.19393,0.35387,2022-05-01,2022-09-30,true,Anglian Water Services Limited,"",""
ukf3102-09700,Skegness,09700,1988,"",East Lindsey,Lincolnshire,England,557243,363356,53.1441464100115,0.349547789114293,2022-05-01,2022-09-30,false,Anglian Water Services Limited,"",""
ukh1303-10325,Hemsby,10325,1991,"",Great Yarmouth,Norfolk,England,650793,317301,52.6952681733587,1.71007376962362,2022-05-01,2022-09-30,false,Anglian Water Services Limited,"",""
ukh1303-10350,Caister Point,10350,1991,"",Great Yarmouth,Norfolk,England,652922,311945,52.6462329700534,1.73740119135091,2022-05-01,2022-09-30,false,Anglian Water Services Limited,"",""
ukh1303-10400,Great Yarmouth North,10400,1988,"",Great Yarmouth,Norfolk,England,653361,310410,52.6322585809523,1.74269873146586,2022-05-01,2022-09-30,false,Anglian Water Services Limited,"",""
ukh1303-10500,Great Yarmouth Pier,10500,1988,"",Great Yarmouth,Norfolk,England,653300,307400,52.6052855908066,1.73949475736344,2022-05-01,2022-09-30,false,Anglian Water Services Limited,"",""
ukh1303-10600,Great Yarmouth South,10600,1988,"",Great Yarmouth,Norfolk,England,653300,306400,52.5963149719545,1.73872991605364,2022-05-01,2022-09-30,false,Anglian Water Services Limited,"",""
ukh1303-10650,Gorleston Beach,10650,1991,"",Great Yarmouth,Norfolk,England,653096,303434,52.5697918425,1.73347417364,2022-05-01,2022-09-30,false,Anglian Water Services Limited,"",""
ukh1304-09800,Heacham,09800,1988,"",King's Lynn and West Norfolk,Norfolk,England,566300,337500,52.9092042364551,0.47149809252374,2022-05-01,2022-09-30,true,Anglian Water Services Limited,"",""
ukh1304-09850,Hunstanton Main Beach,09850,1996,"",King's Lynn and West Norfolk,Norfolk,England,567020,340600,52.936821736507,0.483787390916709,2022-05-01,2022-09-30,true,Anglian Water Services Limited,"",""
ukh1304-09900,Hunstanton (Old Hunstanton),09900,1988,"",King's Lynn and West Norfolk,Norfolk,England,567800,342500,52.953642084641,0.496364280806723,2022-05-01,2022-09-30,true,Anglian Water Services Limited,"",""
ukh1305-10000,Wells,10000,1988,"",North Norfolk,Norfolk,England,591400,345600,52.973582594339,0.849053394593845,2022-05-01,2022-09-30,true,Anglian Water Services Limited,"",""
ukh1305-10100,Sheringham,10100,1988,"",North Norfolk,Norfolk,England,615665,343545,52.9459370506713,1.20848053319422,2022-05-01,2022-09-30,false,Anglian Water Services Limited,"",""
ukh1305-10125,West Runton,10125,2016,"",North Norfolk,Norfolk,England,618660,343207,52.9416822075366,1.25276663199985,2022-05-01,2022-09-30,false,Anglian Water Services Limited,"",""
ukh1305-10150,East Runton,10150,2010,"",North Norfolk,Norfolk,England,620242,342763,52.9370619292274,1.27595332448127,2022-05-01,2022-09-30,false,Anglian Water Services Limited,"",""
ukh1305-10200,Cromer,10200,1988,"",North Norfolk,Norfolk,England,622025,342339,52.93251241605058,1.302162611388792,2022-05-01,2022-09-30,false,Anglian Water Services Limited,"",""
ukh1305-10300,Mundesley,10300,1988,"",North Norfolk,Norfolk,England,631700,336600,52.8769429465284,1.44174118339281,2022-05-01,2022-09-30,false,Anglian Water Services Limited,"",""
ukh1305-10310,Sea Palling,10310,2002,"",North Norfolk,Norfolk,England,643090,327540,52.7906397541907,1.60390398189731,2022-05-01,2022-09-30,false,Anglian Water Services Limited,"",""
ukh1406-10900,Felixstowe North,10900,1988,"",East Suffolk,Suffolk,England,630598,234411,51.9603405905382,1.35498582937495,2022-05-01,2022-09-30,false,Anglian Water Services Limited,"",""
ukh1406-11000,Felixstowe South,11000,1988,"",East Suffolk,Suffolk,England,629700,233700,51.9543304067933,1.34146436108153,2022-05-01,2022-09-30,false,Anglian Water Services Limited,"",""
ukh1407-10750,Lowestoft (North of Claremont Pier),10750,1998,"",East Suffolk,Suffolk,England,654718,292204,52.4683066878659,1.74874459923372,2022-05-01,2022-09-30,true,Anglian Water Services Limited,"",""
ukh1407-10800,Lowestoft (South of Claremont Pier),10800,1988,"",East Suffolk,Suffolk,England,654500,291700,52.4638869856628,1.74515820945775,2022-05-01,2022-09-30,false,Anglian Water Services Limited,"",""
ukh1407-10830,Southwold The Pier,10830,2000,"",East Suffolk,Suffolk,England,651300,276700,52.3307965572847,1.68690961295553,2022-05-01,2022-09-30,false,Anglian Water Services Limited,"",""
ukh1407-10850,Southwold The Denes,10850,1990,"",East Suffolk,Suffolk,England,650800,275400,52.3193619673795,1.67861883167939,2022-05-01,2022-09-30,true,Anglian Water Services Limited,"",""
ukh3100-11770,Shoebury East,11770,1989,"",Southend-on-Sea,"",England,594570,185150,51.5317329719537,0.803799899937665,2022-05-01,2022-09-30,true,Anglian Water Services Limited,"",""
ukh3100-11780,Shoeburyness,11780,2001,"",Southend-on-Sea,"",England,592550,184100,51.5229949803703,0.774140048920002,2022-05-01,2022-09-30,false,Anglian Water Services Limited,"",""
ukh3100-11800,Southend Thorpe Bay,11800,1988,"",Southend-on-Sea,"",England,591100,184700,51.5288756695968,0.753590049532803,2022-05-01,2022-09-30,false,Anglian Water Services Limited,"",""
ukh3100-11830,Southend Jubilee,11830,2003,"",Southend-on-Sea,"",England,589000,184500,51.5277856278895,0.72324513291852,2022-05-01,2022-09-30,true,Anglian Water Services Limited,"",""
ukh3100-11850,Southend Three Shells,11850,2001,"",Southend-on-Sea,"",England,588200,185050,51.5329923298627,0.712019813260905,2022-05-01,2022-09-30,true,Anglian Water Services Limited,"",""
ukh3100-11900,Southend Westcliff Bay,11900,1988,"",Southend-on-Sea,"",England,586450,185250,51.5353687855912,0.686924507608679,2022-05-01,2022-09-30,false,Anglian Water Services Limited,"",""
ukh3100-11902,Southend Chalkwell,11902,2003,"",Southend-on-Sea,"",England,585470,185440,51.5373978362018,0.67291096820191,2022-05-01,2022-09-30,true,Anglian Water Services Limited,"",""
ukh3100-11904,Leigh Bell Wharf,11904,2003,"",Southend-on-Sea,"",England,584050,185570,51.5390298429933,0.652527405156226,2022-05-01,2022-09-30,true,Anglian Water Services Limited,"",""
ukh3306-11750,West Mersea,11750,1991,"",Colchester,"",England,602270,212030,51.7703990868537,0.930194910705001,2022-05-01,2022-09-30,false,Anglian Water Services Limited,"",""
ukh3311-11100,Dovercourt,11100,1988,"",Tendring,"",England,625170,230640,51.9287145174992,1.27365363707728,2022-05-01,2022-09-30,false,Anglian Water Services Limited,"",""
ukh3311-11250,Walton,11250,1988,"",Tendring,"",England,625550,221560,51.8470573070425,1.27323924082661,2022-05-01,2022-09-30,true,Anglian Water Services Limited,"",""
ukh3311-11300,Frinton,11300,1988,"",Tendring,"",England,623928,219342,51.8277889573572,1.24830941766983,2022-05-01,2022-09-30,true,Anglian Water Services Limited,"",""
ukh3311-11350,Holland,11350,1988,"",Tendring,"",England,622450,217650,51.8132012147031,1.22579854706484,2022-05-01,2022-09-30,true,Anglian Water Services Limited,"",""
ukh3311-11500,Clacton,11500,1988,"",Tendring,"",England,618790,215250,51.7930992766385,1.17127582820326,2022-05-01,2022-09-30,true,Anglian Water Services Limited,"",""
ukh3311-11550,Clacton (Groyne 41),11550,1995,2020,Tendring,"",England,617600,214300,51.785,1.1535,2019-05-01,2019-09-30,false,Anglian Water Services Limited,"",""
ukh3311-11600,Jaywick,11600,1988,"",Tendring,"",England,614850,212800,51.772629737974,1.1127180240145,2022-05-01,2022-09-30,false,Anglian Water Services Limited,"",""
ukh3311-11650,Clacton Beach Martello Tower,11650,2005,"",Tendring,"",England,616700,213700,51.7799970257233,1.14005075867046,2022-05-01,2022-09-30,true,Anglian Water Services Limited,"",""
ukh3311-11700,Brightlingsea,11700,1988,"",Tendring,"",England,607647,216182,51.8057114363672,1.01049496166788,2022-05-01,2022-09-30,true,Anglian Water Services Limited,"",""
uki1101-11910,Hampstead Heath (Ladies Pond),11910,1998,"",City and County of the City of London,Greater London Authority,England,527620,186920,51.5667313295976,-0.160132015758681,2022-05-01,2022-09-30,false,Thames Water Utilities Limited,"",""
uki1101-11920,Hampstead Heath (Mens Pond),11920,1998,"",City and County of the City of London,Greater London Authority,England,527870,186550,51.5633496709908,-0.156661551621384,2022-05-01,2022-09-30,false,Thames Water Utilities Limited,"",""
uki1101-11930,Hampstead Heath (Mixed Pond),11930,1998,"",City and County of the City of London,Greater London Authority,England,527210,186240,51.5607128839653,-0.166289996763097,2022-05-01,2022-09-30,false,Thames Water Utilities Limited,"",""
uki1106-11940,The Serpentine - Hyde Park,11940,1998,"",City of Westminster,Greater London Authority,England,527170,180030,51.5049137923283,-0.169107214526447,2022-05-01,2022-09-30,false,Thames Water Utilities Limited,"",""
ukj1402-11946,Wolvercote Mill Stream,11946,2022,"",Oxford,Oxfordshire,England,448665,209362,51.78082,-1.29596,2022-05-01,2022-09-30,false,"","",""
ukj2100-14800,Saltdean,14800,1988,"",The City of Brighton and Hove,"",England,538100,101800,50.7993243694268,-0.0417118106859044,2022-05-01,2022-09-30,false,Southern Water Services Limited,"",""
ukj2100-14900,Brighton Kemptown,14900,1988,"",The City of Brighton and Hove,"",England,532384,103503,50.8159631965402,-0.122161894870468,2022-05-01,2022-09-30,false,Southern Water Services Limited,"",""
ukj2100-14950,Brighton Central,14950,2007,"",The City of Brighton and Hove,"",England,530701,103940,50.8202727622679,-0.145883429349536,2022-05-01,2022-09-30,false,Southern Water Services Limited,"",""
ukj2100-15000,Hove,15000,1988,"",The City of Brighton and Hove,"",England,529225,104232,50.8232281803046,-0.16672315444046,2022-05-01,2022-09-30,false,Southern Water Services Limited,"",""
ukj2201-14400,Pevensey Bay,14400,1988,"",Wealden,East Sussex,England,565687,103791,50.8099898313679,0.35032872068549,2022-05-01,2022-09-30,true,Southern Water Services Limited,"",""
ukj2201-14500,Eastbourne,14500,1988,"",Eastbourne,East Sussex,England,561400,98200,50.7609618329818,0.287079793834733,2022-05-01,2022-09-30,true,Southern Water Services Limited,"",""
ukj2201-14550,Birling Gap,14550,1998,"",Wealden,East Sussex,England,555367,95973,50.7425953434466,0.200669020232404,2022-05-01,2022-09-30,false,Southern Water Services Limited,"",""
ukj2202-14100,Hastings Pelham Beach,14100,1988,"",Hastings,East Sussex,England,582102,109189,50.8535481295427,0.585766467133833,2022-05-01,2022-09-30,true,Southern Water Services Limited,"",""
ukj2202-14150,St Leonards,14150,1996,"",Hastings,East Sussex,England,579700,108700,50.8499165351249,0.551426690368772,2022-05-01,2022-09-30,true,Southern Water Services Limited,"",""
ukj2203-14600,Seaford,14600,1988,"",Lewes,East Sussex,England,547820,98950,50.7713170807392,0.0949765065444564,2022-05-01,2022-09-30,false,Southern Water Services Limited,"",""
ukj2204-13900,Camber,13900,1988,"",Rother,East Sussex,England,596586,118585,50.9332136638357,0.796331258712508,2022-05-01,2022-09-30,false,Southern Water Services Limited,"",""
ukj2204-14000,Winchelsea,14000,1988,"",Rother,East Sussex,England,591200,115400,50.9064145037592,0.718105662124692,2022-05-01,2022-09-30,false,Southern Water Services Limited,"",""
ukj2205-14200,Bexhill,14200,1988,"",Rother,East Sussex,England,574042,107018,50.8365338778057,0.470332162386613,2022-05-01,2022-09-30,true,Southern Water Services Limited,"",""
ukj2205-14300,Norman`s Bay,14300,1988,"",Rother,East Sussex,England,568200,105300,50.8228241604064,0.386655849632203,2022-05-01,2022-09-30,false,Southern Water Services Limited,"",""
ukj2310-11945,Frensham Great Pond,11945,1998,"",Waverley,Surrey,England,484588,140478,51.1573227078271,-0.791833579836205,2022-05-01,2022-09-30,false,Thames Water Utilities Limited,"",""
ukj2401-15100,Southwick,15100,1988,"",Adur,West Sussex,England,524358,104728,50.8287511053224,-0.235618077916229,2022-05-01,2022-09-30,false,Southern Water Services Limited,"",""
ukj2401-15200,Shoreham Beach,15200,2014,"",Adur,West Sussex,England,521848,104429,50.8265866683731,-0.2713284100911,2022-05-01,2022-09-30,false,Southern Water Services Limited,"",""
ukj2401-15300,"Lancing, Beach Green",15300,1988,"",Adur,West Sussex,England,518300,103600,50.8198803418111,-0.321958811608509,2022-05-01,2022-09-30,true,Southern Water Services Limited,"",""
ukj2402-15500,Littlehampton,15500,1988,"",Arun,"",England,503060,101320,50.8022939014127,-0.538868986381269,2022-05-01,2022-09-30,true,Southern Water Services Limited,"",""
ukj2402-15600,Middleton-on-sea,15600,1988,"",Arun,"",England,498500,99900,50.7902,-0.6039,2022-05-01,2022-09-30,false,Southern Water Services Limited,"",""
ukj2402-15650,Felpham,15650,1996,"",Arun,"",England,495080,99390,50.7863058760123,-0.652576069939417,2022-05-01,2022-09-30,true,Southern Water Services Limited,"",""
ukj2402-15680,Bognor Regis East,15680,1999,"",Arun,"",England,493900,98930,50.7823624879439,-0.669428029479676,2022-05-01,2022-09-30,true,Southern Water Services Limited,"",""
ukj2402-15700,Bognor Regis (Aldwick),15700,1988,"",Arun,"",England,492360,98557,50.7792561643122,-0.691360026250996,2022-05-01,2022-09-30,true,Southern Water Services Limited,"",""
ukj2402-15800,Pagham,15800,1988,"",Arun,"",England,489200,97200,50.7675502319918,-0.736497732795299,2022-05-01,2022-09-30,false,Southern Water Services Limited,"",""
ukj2403-15900,Selsey,15900,1988,"",Chichester,West Sussex,England,486872,93686,50.7363102526785,-0.770329030240902,2022-05-01,2022-09-30,false,Southern Water Services Limited,"",""
ukj2403-16000,Bracklesham Bay,16000,1988,"",Chichester,West Sussex,England,480462,96331,50.7610131736483,-0.860567028233181,2022-05-01,2022-09-30,false,Southern Water Services Limited,"",""
ukj2403-16100,West Wittering,16100,1988,"",Chichester,West Sussex,England,476800,98000,50.776514594016,-0.912129642146413,2022-05-01,2022-09-30,false,Southern Water Services Limited,"",""
ukj2407-15400,Worthing,15400,1988,"",Worthing,West Sussex,England,513900,102100,50.8072781787131,-0.384860537691278,2022-05-01,2022-09-30,true,Southern Water Services Limited,"",""
ukj3100-16500,Eastney,16500,1988,"",City of Portsmouth,"",England,467410,98774,50.7846394489991,-1.04514441363308,2022-05-01,2022-09-30,false,Southern Water Services Limited,"",""
ukj3100-16600,Southsea East,16600,1988,"",City of Portsmouth,"",England,465000,98080,50.7786645150506,-1.07943783420055,2022-05-01,2022-09-30,false,Southern Water Services Limited,"",""
ukj3304-16850,Hillhead,16850,1990,"",Fareham,Hampshire,England,454670,101830,50.8134568815832,-1.22539192112877,2022-05-01,2022-09-30,true,Southern Water Services Limited,"",""
ukj3305-16700,Stokes Bay,16700,1988,"",Gosport,"",England,460000,97900,50.7775935012207,-1.15038699711023,2022-05-01,2022-09-30,false,Southern Water Services Limited,"",""
ukj3305-16800,Lee-on-Solent,16800,1988,"",Gosport,"",England,456172,100458,50.8009768984075,-1.20428418783655,2022-05-01,2022-09-30,false,Southern Water Services Limited,"",""
ukj3307-16300,Eastoke,16300,1988,"",Havant,Hampshire,England,472900,98400,50.7806135959537,-0.967353980067141,2022-05-01,2022-09-30,false,Southern Water Services Limited,"",""
ukj3307-16350,Beachlands Central,16350,1998,"",Havant,Hampshire,England,471350,98710,50.7835933373875,-0.989275631087487,2022-05-01,2022-09-30,false,Southern Water Services Limited,"",""
ukj3307-16400,Beachlands West,16400,1988,"",Havant,Hampshire,England,470500,98700,50.7836072294375,-1.00133285633792,2022-05-01,2022-09-30,false,Southern Water Services Limited,"",""
ukj3308-16900,Calshot,16900,1988,"",New Forest,Hampshire,England,448138,101306,50.8093235327237,-1.31816830680352,2022-05-01,2022-09-30,false,Southern Water Services Limited,"",""
ukj3308-17000,Lepe,17000,1988,"",Hampshire,"",England,445600,98500,50.784296871071,-1.35453444846381,2022-05-01,2022-09-30,false,Southern Water Services Limited,"",""
ukj3308-17100,Milford-on-sea,17100,1988,"",New Forest,Hampshire,England,427582,91779,50.725,-1.6106,2022-05-01,2022-09-30,false,Southern Water Services Limited,"",""
ukj3400-17400,Compton Bay,17400,1988,"",Isle of Wight,"",England,437681,84179,50.6560855499202,-1.46831923617904,2022-05-01,2022-09-30,false,Southern Water Services Limited,"",""
ukj3400-17500,Totland Bay,17500,1988,"",Isle of Wight,"",England,432195,86895,50.6808370676852,-1.54568856715085,2022-05-01,2022-09-30,false,Southern Water Services Limited,"",""
ukj3400-17600,Colwell Bay,17600,1988,"",Isle of Wight,"",England,432699,87859,50.6894777728459,-1.5384702684968,2022-05-01,2022-09-30,true,Southern Water Services Limited,"",""
ukj3400-17700,Gurnard,17700,1988,"",Isle of Wight,"",England,447700,95900,50.7607492247221,-1.32508413493592,2022-05-01,2022-09-30,true,Southern Water Services Limited,"",""
ukj3400-17800,Cowes,17800,1988,"",Isle of Wight,"",England,448800,96700,50.7678515410396,-1.30938364395512,2022-05-01,2022-09-30,true,Southern Water Services Limited,"",""
ukj3400-17850,East Cowes,17850,2022,"",Isle of Wight,"",England,450642,96377,50.76477,-1.28329,2022-05-01,2022-09-30,false,Southern Water Services Limited,"",""
ukj3400-17900,Ryde,17900,1988,"",Isle of Wight,"",England,460100,92700,50.7308267143663,-1.14981599769512,2022-05-01,2022-09-30,true,Southern Water Services Limited,"",""
ukj3400-18000,Seagrove,18000,1988,"",Isle of Wight,"",England,463150,91123,50.7163240595647,-1.10687537897105,2022-05-01,2022-09-30,true,Southern Water Services Limited,"",""
ukj3400-18100,St Helens,18100,1988,"",Isle of Wight,"",England,463755,89160,50.6986076666254,-1.09864525630914,2022-05-01,2022-09-30,true,Southern Water Services Limited,"",""
ukj3400-18200,Bembridge,18200,1988,"",Isle of Wight,"",England,465817,87808,50.686221830107,-1.0696931248814,2022-05-01,2022-09-30,true,Southern Water Services Limited,"",""
ukj3400-18300,Whitecliff Bay,18300,1988,"",Isle of Wight,"",England,464100,86200,50.6719546786527,-1.09427330030781,2022-05-01,2022-09-30,false,Southern Water Services Limited,"",""
ukj3400-18350,Yaverland,18350,2008,"",Isle of Wight,"",England,461360,85040,50.6618190039032,-1.13323510388486,2022-05-01,2022-09-30,false,Southern Water Services Limited,"",""
ukj3400-18400,Sandown,18400,1988,"",Isle of Wight,"",England,460139,84264,50.6549685196269,-1.150633918919,2022-05-01,2022-09-30,true,Southern Water Services Limited,"",""
ukj3400-18500,Shanklin,18500,1988,"",Isle of Wight,"",England,458580,81137,50.6270095566999,-1.17317872002862,2022-05-01,2022-09-30,true,Southern Water Services Limited,"",""
ukj3400-18600,Ventnor,18600,1988,"",Isle of Wight,"",England,456018,77341,50.5931272563416,-1.2099676835851,2022-05-01,2022-09-30,false,Southern Water Services Limited,"",""
ukj4202-12100,"West Beach, Whitstable",12100,1988,"",Canterbury,"",England,609800,166000,51.3543349703393,1.01172153066364,2022-05-01,2022-09-30,false,Southern Water Services Limited,"",""
ukj4202-12120,Tankerton,12120,2007,"",Canterbury,"",England,612120,167333,51.3654432940843,1.04578516539971,2022-05-01,2022-09-30,true,Southern Water Services Limited,"",""
ukj4202-12150,Herne Bay Central,12150,1999,"",Canterbury,"",England,617150,168280,51.3720466073964,1.11850745016388,2022-05-01,2022-09-30,true,Southern Water Services Limited,"",""
ukj4202-12200,Herne Bay,12200,1988,"",Canterbury,"",England,618600,168600,51.3743637332956,1.13950355047236,2022-05-01,2022-09-30,true,Southern Water Services Limited,"",""
ukj4204-13000,Sandwich Bay,13000,1988,"",Dover,Kent,England,635778,159142,51.2826015238971,1.37962358666148,2022-05-01,2022-09-30,false,Southern Water Services Limited,"",""
ukj4204-13100,Deal Castle,13100,1988,"",Dover,Kent,England,637837,152805,51.2248658248295,1.40488530923027,2022-05-01,2022-09-30,false,Southern Water Services Limited,"",""
ukj4204-13200,St Margaret`s Bay,13200,1988,"",Dover,Kent,England,636878,144490,51.1506270756334,1.38569756652105,2022-05-01,2022-09-30,false,Southern Water Services Limited,"",""
ukj4208-13300,Folkestone,13300,1988,"",Shepway,Kent,England,623615,136249,51.0819704735095,1.19127116521233,2022-05-01,2022-09-30,false,Southern Water Services Limited,"",""
ukj4208-13400,Sandgate,13400,1988,"",Shepway,Kent,England,618800,134800,51.07081526473,1.12175922624862,2022-05-01,2022-09-30,false,Southern Water Services Limited,"",""
ukj4208-13500,Hythe,13500,1988,"",Shepway,Kent,England,616000,134000,51.0646916927223,1.08137696303459,2022-05-01,2022-09-30,false,Southern Water Services Limited,"",""
ukj4208-13600,Dymchurch,13600,1988,"",Shepway,Kent,England,610240,129300,51.0246230758988,0.996565672336776,2022-05-01,2022-09-30,false,Southern Water Services Limited,"",""
ukj4208-13700,St Mary's Bay (Kent),13700,1988,"",Shepway,Kent,England,609300,127700,51.0105977658964,0.982258544095358,2022-05-01,2022-09-30,false,Southern Water Services Limited,"",""
ukj4208-13800,Littlestone,13800,1988,"",Shepway,Kent,England,608400,123900,50.976799654129,0.96726860468507,2022-05-01,2022-09-30,false,Southern Water Services Limited,"",""
ukj4209-11950,Sheerness,11950,1991,"",Swale,"",England,591917,175199,51.4432594353138,0.760205649449072,2022-05-01,2022-09-30,false,Southern Water Services Limited,"",""
ukj4209-11975,Minster Leas,11975,2010,"",Swale,"",England,595094,174170,51.4329444250857,0.805284292770524,2022-05-01,2022-09-30,false,Southern Water Services Limited,"",""
ukj4209-12000,Leysdown,12000,1988,"",Swale,"",England,603336,170841,51.4001551077808,0.921786154741231,2022-05-01,2022-09-30,false,Southern Water Services Limited,"",""
ukj4210-12300,"Minnis Bay, Birchington",12300,1988,"",Thanet,Kent,England,628600,169700,51.3803038326327,1.28364552660244,2022-05-01,2022-09-30,false,Southern Water Services Limited,"",""
ukj4210-12350,"West Bay, Westgate",12350,1997,"",Thanet,Kent,England,631968,170175,51.3832025571345,1.33226728524173,2022-05-01,2022-09-30,false,Southern Water Services Limited,"",""
ukj4210-12400,"St Mildred's Bay, Westgate",12400,1988,"",Thanet,Kent,England,632687,170396,51.3848922879526,1.34272601331783,2022-05-01,2022-09-30,false,Southern Water Services Limited,"",""
ukj4210-12450,"Westbrook Bay, Margate",12450,1997,"",Thanet,Kent,England,634100,170600,51.3861428860402,1.36313023717547,2022-05-01,2022-09-30,false,Southern Water Services Limited,"",""
ukj4210-12500,Margate The Bay,12500,1988,"",Thanet,Kent,England,634970,170814,51.3877045480062,1.37575225993371,2022-05-01,2022-09-30,false,Southern Water Services Limited,"",""
ukj4210-12600,Margate Fulsam Rock,12600,1988,"",Thanet,Kent,England,635692,171402,51.3926832590616,1.38649991630989,2022-05-01,2022-09-30,true,Southern Water Services Limited,"",""
ukj4210-12630,"Walpole Bay, Margate",12630,1997,"",Thanet,Kent,England,636570,171395,51.3922553681592,1.39909205384006,2022-05-01,2022-09-30,false,Southern Water Services Limited,"",""
ukj4210-12660,"Botany Bay, Broadstairs",12660,1997,"",Thanet,Kent,England,639100,171200,51.3894456556124,1.43525760038043,2022-05-01,2022-09-30,false,Southern Water Services Limited,"",""
ukj4210-12700,"Joss Bay, Broadstairs",12700,1988,"",Thanet,Kent,England,639908,170099,51.3792230675941,1.44610563272459,2022-05-01,2022-09-30,false,Southern Water Services Limited,"",""
ukj4210-12750,"Broadstairs, Stone Bay",12750,1997,"",Thanet,Kent,England,639923,168564,51.3654395136107,1.44528543183743,2022-05-01,2022-09-30,false,Southern Water Services Limited,"",""
ukj4210-12800,"Broadstairs, Viking Bay",12800,1988,"",Thanet,Kent,England,639800,167700,51.3577366427204,1.44293976929626,2022-05-01,2022-09-30,true,Southern Water Services Limited,"",""
ukj4210-12850,Ramsgate Sands,12850,1997,"",Thanet,Kent,England,638675,164806,51.3322345348873,1.4248732839031,2022-05-01,2022-09-30,false,Southern Water Services Limited,"",""
ukj4210-12900,Ramsgate Western Undercliffe,12900,1988,"",Thanet,Kent,England,637406,164120,51.32660788452,1.40623423433956,2022-05-01,2022-09-30,false,Southern Water Services Limited,"",""
ukk1100-36050,Henleaze Lake,36050,2014,"",City of Bristol,"",England,358047,177472,51.4946241931076,-2.60570469108093,2022-05-01,2022-09-30,false,Wessex Water Services Limited,"",""
ukk1202-35700,Weston-super-Mare Uphill Slipway,35700,1988,"",North Somerset,"",England,331092,158867,51.3247204685577,-2.99031890971833,2022-05-01,2022-09-30,true,Wessex Water Services Limited,"Step Change in water quality from 30/04/2013, due to improvements made to Water plc assets.",2013-04-30
ukk1202-35800,Weston Main,35800,1988,"",North Somerset,"",England,331600,160700,51.3412612902028,-2.98338221074795,2022-05-01,2022-09-30,true,Wessex Water Services Limited,"Step Change in water quality from 01/05/2019, due to elimination of contaminated discharges from a nearby surface water outfall.",2019-04-30
ukk1202-35900,Weston-super-Mare Sand Bay,35900,1988,"",North Somerset,"",England,332838,163267,51.3644875606138,-2.96609706624921,2022-05-01,2022-09-30,true,Wessex Water Services Limited,"",""
ukk1202-36000,Clevedon Beach,36000,1988,"",North Somerset,"",England,340224,171824,51.44224,-2.86146,2022-05-01,2022-09-30,true,Wessex Water Services Limited,"",""
ukk1302-11760,Cotswold Country Park and Beach,11760,1998,"",Cotswold,"",England,402800,195800,51.6609853223097,-1.96093036014707,2022-05-01,2022-09-30,false,Thames Water Utilities Limited,"",""
ukk2101-19000,Bournemouth Hengistbury West,19000,1988,"","Bournemouth, Christchurch and Poole","",England,416257,90826,50.7168473725383,-1.77109905009598,2022-05-01,2022-09-30,false,Wessex Water Services Limited,"",""
ukk2101-19020,Bournemouth Southbourne,19020,2000,"","Bournemouth, Christchurch and Poole","",England,414800,91060,50.7189902745556,-1.79172760753161,2022-05-01,2022-09-30,false,Wessex Water Services Limited,"",""
ukk2101-19030,Bournemouth Fisherman`s Walk,19030,1993,"","Bournemouth, Christchurch and Poole","",England,413024,91248,50.7207230391476,-1.81687860164398,2022-05-01,2022-09-30,false,Wessex Water Services Limited,"",""
ukk2101-19050,Bournemouth Manor Steps,19050,2018,"","Bournemouth, Christchurch and Poole","",England,411936,91195,50.7202604581267,-1.83228184965642,2022-05-01,2022-09-30,false,Wessex Water Services Limited,"",""
ukk2101-19060,Bournemouth Boscombe Pier,19060,1993,"","Bournemouth, Christchurch and Poole","",England,411107,91104,50.7194675079049,-1.84403880813019,2022-05-01,2022-09-30,true,Wessex Water Services Limited,"",""
ukk2101-19100,Bournemouth Pier,19100,1988,"","Bournemouth, Christchurch and Poole","",England,408860,90657,50.7154859312908,-1.87587923561023,2022-05-01,2022-09-30,false,Wessex Water Services Limited,"",""
ukk2101-19150,Bournemouth Durley Chine,19150,1993,"","Bournemouth, Christchurch and Poole","",England,407951,90387,50.713070870982,-1.88876030554671,2022-05-01,2022-09-30,false,Wessex Water Services Limited,"",""
ukk2101-19160,Bournemouth Alum Chine,19160,2000,"","Bournemouth, Christchurch and Poole","",England,407481,90171,50.7111345968441,-1.89542148993552,2022-05-01,2022-09-30,false,Wessex Water Services Limited,"",""
ukk2102-19170,Poole Branksome Chine,19170,2000,"","Bournemouth, Christchurch and Poole","",England,406455,89589,50.7059129455387,-1.9099627041663,2022-05-01,2022-09-30,false,Wessex Water Services Limited,"",""
ukk2102-19190,Poole Canford Cliffs Chine,19190,2004,"","Bournemouth, Christchurch and Poole","",England,405710,88983,50.7004710167838,-1.92052213571419,2022-05-01,2022-09-30,false,Wessex Water Services Limited,"",""
ukk2102-19200,Poole Shore Road Beach,19200,1988,"","Bournemouth, Christchurch and Poole","",England,405085,88337,50.6946674055625,-1.92938068365715,2022-05-01,2022-09-30,false,Wessex Water Services Limited,"",""
ukk2102-19350,Poole Sandbanks Peninsular,19350,1997,"","Bournemouth, Christchurch and Poole","",England,404520,87673,50.6887007951396,-1.93738788221216,2022-05-01,2022-09-30,false,Wessex Water Services Limited,"",""
ukk2102-19400,Poole Harbour Lake,19400,1988,"","Bournemouth, Christchurch and Poole","",England,398313,90468,50.7138492148326,-2.02526943121092,2022-05-01,2022-09-30,true,Wessex Water Services Limited,"",""
ukk2102-19450,Poole Harbour Rockley Sands,19450,1988,"","Bournemouth, Christchurch and Poole","",England,397263,91078,50.719330531449,-2.04014616943396,2022-05-01,2022-09-30,true,Wessex Water Services Limited,"",""
ukk2201-17200,Christchurch Bay,17200,1988,"",New Forest,Hampshire,England,423900,92800,50.7343360966257,-1.66271235419981,2022-05-01,2022-09-30,false,Southern Water Services Limited,"",""
ukk2201-17300,Highcliffe,17300,1988,"","Bournemouth, Christchurch and Poole","",England,421374,93085,50.7369968975496,-1.69848882701321,2022-05-01,2022-09-30,false,Southern Water Services Limited,"",""
ukk2201-18700,Christchurch Highcliffe Castle,18700,1988,"","Bournemouth, Christchurch and Poole","",England,420248,92931,50.7356521656545,-1.71445336233307,2022-05-01,2022-09-30,false,Wessex Water Services Limited,"",""
ukk2201-18750,Christchurch Friar`s Cliff,18750,1990,"","Bournemouth, Christchurch and Poole","",England,419194,92528,50.7320637415209,-1.72940964797903,2022-05-01,2022-09-30,false,Wessex Water Services Limited,"",""
ukk2201-18800,Christchurch Avon Beach,18800,1988,"","Bournemouth, Christchurch and Poole","",England,418895,92216,50.7292678056844,-1.73366211711726,2022-05-01,2022-09-30,false,Wessex Water Services Limited,"",""
ukk2201-18900,Christchurch Mudeford Sandbank East,18900,1988,"","Bournemouth, Christchurch and Poole","",England,418300,91100,50.7192510207495,-1.7421472862786,2022-05-01,2022-09-30,false,Wessex Water Services Limited,"",""
ukk2204-19600,Shell Bay North,19600,1988,"",Dorset,"",England,403714,86533,50.6784546277685,-1.94880889880762,2022-05-01,2022-09-30,false,Wessex Water Services Limited,"",""
ukk2204-19700,Studland Knoll House,19700,1988,"",Dorset,"",England,403430,83602,50.6520985551084,-1.95285461153164,2022-05-01,2022-09-30,false,Wessex Water Services Limited,"",""
ukk2204-19800,Swanage Central,19800,1988,"",Swanage,"",England,403102,79303,50.6134402645265,-1.95752882593927,2022-05-01,2022-09-30,true,Wessex Water Services Limited,"",""
ukk2204-19900,Kimmeridge Bay,19900,1988,"",Dorset,"",England,390798,79094,50.6114938804878,-2.13142387605586,2022-05-01,2022-09-30,false,Wessex Water Services Limited,"",""
ukk2204-20000,Lulworth Cove,20000,1988,"",Dorset,"",England,382457,79943,50.6189357765588,-2.24934733320746,2022-05-01,2022-09-30,true,Wessex Water Services Limited,"",""
ukk2204-20100,Durdle Door East,20100,1988,"",Dorset,"",England,380703,80291,50.6220094769958,-2.27415859053492,2022-05-01,2022-09-30,false,Wessex Water Services Limited,"",""
ukk2204-20200,Durdle Door West,20200,1988,"",Dorset,"",England,380493,80285,50.6219484895418,-2.27712684482216,2022-05-01,2022-09-30,false,Wessex Water Services Limited,"",""
ukk2205-20970,Hive,20970,2000,"",Dorset,"",England,349016,88762,50.6962649935347,-2.72323664973336,2022-05-01,2022-09-30,false,Wessex Water Services Limited,"",""
ukk2205-21000,West Bay (West),21000,1988,"",Dorset,"",England,345974,90430,50.7109881993129,-2.76654773414885,2022-05-01,2022-09-30,true,Wessex Water Services Limited,"",""
ukk2205-21100,Eypemouth,21100,1988,"",Dorset,"",England,344685,91013,50.7161089362555,-2.78488967571793,2022-05-01,2022-09-30,false,Wessex Water Services Limited,"",""
ukk2205-21200,Seatown,21200,1988,"",Dorset,"",England,341873,91711,50.7221101381266,-2.82482642610957,2022-05-01,2022-09-30,false,Wessex Water Services Limited,"",""
ukk2205-21300,Charmouth West,21300,1988,"",Dorset,"",England,336260,93050,50.733560013125,-2.90456429590428,2022-05-01,2022-09-30,true,Wessex Water Services Limited,"",""
ukk2205-21400,Lyme Regis Church Cliff Beach,21400,1988,2016,Dorset,"",England,334430,92126,50.7250478024008,-2.9303269563221,2015-05-01,2015-09-30,true,South West Water Limited,"",""
ukk2205-21500,Lyme Regis Front Beach,21500,1988,"",Dorset,"",England,333900,91850,50.7225059921167,-2.93778501225405,2022-05-01,2022-09-30,true,South West Water Limited,"",""
ukk2206-20300,Ringstead Bay,20300,1988,"",Dorset,"",England,375246,81320,50.6310556486312,-2.35136765080147,2022-05-01,2022-09-30,false,Wessex Water Services Limited,"",""
ukk2206-20400,Bowleaze Cove,20400,1988,"",Dorset,"",England,370236,81919,50.6362068663061,-2.42225020608286,2022-05-01,2022-09-30,false,Wessex Water Services Limited,"",""
ukk2206-20500,Church Ope Cove,20500,1988,"",Dorset,"",England,369760,71000,50.5379917922919,-2.42808894091769,2022-05-01,2022-09-30,false,Wessex Water Services Limited,"",""
ukk2206-20600,Weymouth Lodmoor,20600,1988,"",Dorset,"",England,368820,80780,50.6258900329473,-2.44217637595214,2022-05-01,2022-09-30,false,Wessex Water Services Limited,"",""
ukk2206-20700,Weymouth Central,20700,1988,"",Dorset,"",England,368100,79514,50.6144663711725,-2.45224570274321,2022-05-01,2022-09-30,false,Wessex Water Services Limited,"",""
ukk2206-20800,Portland Harbour Castle Cove,20800,1988,"",Dorset,"",England,367560,77500,50.5963254620929,-2.45970117413061,2022-05-01,2022-09-30,true,Wessex Water Services Limited,"",""
ukk2206-20900,Portland Harbour Sandsfoot Castle,20900,1988,"",Dorset,"",England,367285,77271,50.5942507564001,-2.46356615137405,2022-05-01,2022-09-30,true,Wessex Water Services Limited,"",""
ukk2302-35300,Burnham Jetty North,35300,1988,2020,Sedgemoor,Somerset,England,330322,148972,51.2357,-2.9994,2019-05-01,2019-09-30,true,Wessex Water Services Limited,"",""
ukk2302-35500,Berrow North of Unity Farm,35500,1988,"",Sedgemoor,Somerset,England,329114,154114,51.2817458565281,-3.01775519293808,2022-05-01,2022-09-30,false,Wessex Water Services Limited,"",""
ukk2302-35600,Brean,35600,1988,"",Sedgemoor,Somerset,England,329600,158500,51.3212379812709,-3.0116549233975,2022-05-01,2022-09-30,false,Wessex Water Services Limited,"",""
ukk2305-34900,Porlock Weir,34900,1988,"",Somerset West and Taunton,Somerset,England,286521,147903,51.2190192938815,-3.6262649577776,2022-05-01,2022-09-30,false,Wessex Water Services Limited,"",""
ukk2305-35000,Minehead Terminus,35000,1988,"",Somerset West and Taunton,Somerset,England,297614,146397,51.207581440661,-3.46705613745907,2022-05-01,2022-09-30,true,Wessex Water Services Limited,"",""
ukk2305-35100,Dunster Beach,35100,1988,"",Somerset West and Taunton,Somerset,England,300408,144655,51.1922412977689,-3.426872623804094,2022-05-01,2022-09-30,true,Wessex Water Services Limited,"",""
ukk2305-35200,Blue Anchor West,35200,1988,"",Somerset West and Taunton,Somerset,England,302161,143509,51.1824184866261,-3.40119891207819,2022-05-01,2022-09-30,true,Wessex Water Services Limited,"",""
ukk3101-26520,Kingsand,26520,1998,"",Cornwall,"",England,243570,50500,50.3336128930897,-4.19937582310552,2022-05-01,2022-09-30,false,South West Water Limited,"",""
ukk3101-26530,Cawsand,26530,1998,"",Cornwall,"",England,243420,50200,50.3308770287535,-4.20135718723489,2022-05-01,2022-09-30,false,South West Water Limited,"",""
ukk3101-26560,Tregonhawke,26560,2018,"",Cornwall,"",England,240500,51400,50.3408694024974,-4.24284841768198,2022-05-01,2022-09-30,false,South West Water Limited,"",""
ukk3101-26570,Sharrow,26570,2012,"",Cornwall,"",England,239330,52185,50.3476,-4.2596,2022-05-01,2022-09-30,false,South West Water Limited,"",""
ukk3101-26600,Portwrinkle,26600,1988,"",Cornwall,"",England,235960,53830,50.3614649870999,-4.30766544034371,2022-05-01,2022-09-30,false,South West Water Limited,"",""
ukk3101-26700,Downderry,26700,1988,"",Cornwall,"",England,231470,53920,50.3610043414486,-4.37077575632986,2022-05-01,2022-09-30,false,South West Water Limited,"",""
ukk3101-26800,Seaton (Cornwall),26800,1988,"",Cornwall,"",England,230370,54330,50.3643721667834,-4.38641162405235,2022-05-01,2022-09-30,true,South West Water Limited,"",""
ukk3101-26900,Millendreath,26900,1988,"",Cornwall,"",England,226810,54080,50.3610883752151,-4.43630361658836,2022-05-01,2022-09-30,true,South West Water Limited,"",""
ukk3101-27000,East Looe,27000,1988,"",Cornwall,"",England,225700,53170,50.3525841676456,-4.45147295019057,2022-05-01,2022-09-30,true,South West Water Limited,"Step Change in water quality from 30/04/2015, due to improvements made to Water plc assets.",2015-04-30
ukk3102-28500,Pendower,28500,1988,"",Cornwall,"",England,189750,38120,50.2056700645544,-4.94779756978228,2022-05-01,2022-09-30,true,South West Water Limited,"",""
ukk3102-28550,Porthcurnick,28550,1998,"",Cornwall,"",England,187900,36020,50.1861488307772,-4.97251413001177,2022-05-01,2022-09-30,true,South West Water Limited,"",""
ukk3102-28600,Gyllyngvase,28600,1988,"",Cornwall,"",England,180940,31680,50.1446385955148,-5.06736772446128,2022-05-01,2022-09-30,false,South West Water Limited,"",""
ukk3102-28700,Swanpool,28700,1988,"",Cornwall,"",England,180320,31260,50.1406373490229,-5.07579001240729,2022-05-01,2022-09-30,false,South West Water Limited,"",""
ukk3102-28800,Maenporth,28800,1988,"",Cornwall,"",England,178980,29570,50.1249624436234,-5.09353481382533,2022-05-01,2022-09-30,true,South West Water Limited,"",""
ukk3102-31600,Porthtowan,31600,1988,"",Cornwall,"",England,169127,48092,50.2875216194933,-5.24241622838034,2022-05-01,2022-09-30,false,South West Water Limited,"",""
ukk3102-31650,Chapel Porth,31650,2012,"",Cornwall,"",England,169729,49503,50.3004,-5.2348,2022-05-01,2022-09-30,false,South West Water Limited,"",""
ukk3102-31700,Trevaunance Cove,31700,1988,"",Cornwall,"",England,172220,51620,50.3204028346129,-5.2011963562627,2022-05-01,2022-09-30,false,South West Water Limited,"",""
ukk3102-31800,Perranporth,31800,1988,"",Perranzabuloe,"",England,175640,54700,50.349372204644,-5.1550635763185,2022-05-01,2022-09-30,true,South West Water Limited,"",""
ukk3102-31900,Perranporth Penhale Sands,31900,1988,"",Cornwall,"",England,175950,55800,50.3593678651711,-5.1513676068956,2022-05-01,2022-09-30,false,South West Water Limited,"",""
ukk3102-32000,Holywell Bay,32000,1988,"",Cornwall,"",England,176520,59400,50.3919113546784,-5.1455057863139,2022-05-01,2022-09-30,false,South West Water Limited,"",""
ukk3103-28900,Porthallow,28900,1988,"",Cornwall,"",England,179740,23260,50.0685773406125,-5.07928041433367,2022-05-01,2022-09-30,true,South West Water Limited,"",""
ukk3103-29000,Porthoustock,29000,1988,"",Cornwall,"",England,180760,21770,50.0555729641758,-5.06419511534881,2022-05-01,2022-09-30,false,South West Water Limited,"",""
ukk3103-29100,Coverack,29100,1988,"",Cornwall,"",England,178260,18400,50.024381672247,-5.09711731719632,2022-05-01,2022-09-30,true,South West Water Limited,"",""
ukk3103-29200,Kennack Sands,29200,1988,"",Cornwall,"",England,173410,16460,50.0051345550698,-5.16357592477975,2022-05-01,2022-09-30,true,South West Water Limited,"",""
ukk3103-29400,Polurrian Cove,29400,1988,"",Cornwall,"",England,166860,18770,50.0233499057156,-5.25623485684049,2022-05-01,2022-09-30,false,South West Water Limited,"",""
ukk3103-29500,Poldhu Cove,29500,1988,"",Cornwall,"",England,166550,19920,50.0335544983364,-5.26125534124518,2022-05-01,2022-09-30,true,South West Water Limited,"",""
ukk3103-29501,Church Cove,29501,2004,"",Cornwall,"",England,166100,20500,50.0385857260958,-5.26788220436883,2022-05-01,2022-09-30,true,South West Water Limited,"",""
ukk3103-29800,Porthleven Sands,29800,1988,"",Cornwall,"",England,162950,25370,50.0810654983874,-5.31481129754882,2022-05-01,2022-09-30,false,South West Water Limited,"",""
ukk3103-29900,Praa Sands East,29900,1988,"",Cornwall,"",England,158470,27600,50.0992826747151,-5.37872709464994,2022-05-01,2022-09-30,false,South West Water Limited,"",""
ukk3103-30000,Praa Sands West,30000,1988,"",Cornwall,"",England,157620,28080,50.1032457805843,-5.39089540088006,2022-05-01,2022-09-30,false,South West Water Limited,"",""
ukk3103-31500,Portreath,31500,1988,"",Cornwall,"",England,165350,45330,50.2612329369265,-5.29363312652798,2022-05-01,2022-09-30,false,South West Water Limited,"",""
ukk3104-32550,Porthcothan,32550,1992,"",Cornwall,"",England,185720,72060,50.5090318571474,-5.02351046811618,2022-05-01,2022-09-30,true,South West Water Limited,"",""
ukk3104-32600,Treyarnon Bay,32600,1988,"",Cornwall,"",England,185860,73960,50.5261459739228,-5.02262948465841,2022-05-01,2022-09-30,false,South West Water Limited,"",""
ukk3104-32700,Constantine Bay,32700,1988,"",Cornwall,"",England,185890,74750,50.533251504212,-5.02266055940275,2022-05-01,2022-09-30,false,South West Water Limited,"",""
ukk3104-32750,Booby's Bay,32750,2018,"",Cornwall,"",England,185692,75404,50.5390451927447,-5.02581546494883,2022-05-01,2022-09-30,false,South West Water Limited,"",""
ukk3104-32800,Mother Ivey`s Bay,32800,1988,"",Cornwall,"",England,186450,75940,50.5441430460904,-5.01545210516686,2022-05-01,2022-09-30,false,South West Water Limited,"",""
ukk3104-32900,Harlyn Bay,32900,1988,"",Cornwall,"",England,187720,75460,50.5402949099934,-4.99727977974794,2022-05-01,2022-09-30,true,South West Water Limited,"",""
ukk3104-33000,Trevone Bay,33000,1988,"",Cornwall,"",England,189150,76010,50.5457518185687,-4.97743858812327,2022-05-01,2022-09-30,true,South West Water Limited,"",""
ukk3104-33100,Rock,33100,1988,2016,Cornwall,"",England,192770,75790,50.5450705751418,-4.92629281273976,2015-05-01,2015-09-30,true,South West Water Limited,"",""
ukk3104-33200,Daymer Bay,33200,1988,"",Cornwall,"",England,192830,77600,50.5613477998629,-4.92645433304806,2022-05-01,2022-09-30,false,South West Water Limited,"",""
ukk3104-33300,Polzeath,33300,1988,"",Cornwall,"",England,193600,79070,50.5748227877177,-4.91641319696109,2022-05-01,2022-09-30,true,South West Water Limited,"",""
ukk3104-33350,Trebarwith Strand,33350,2002,"",Cornwall,"",England,204850,86450,50.6449814824378,-4.76160973193857,2022-05-01,2022-09-30,true,South West Water Limited,"",""
ukk3104-33360,Crackington Haven,33360,2002,"",St. Gennys,"",England,214270,96900,50.7419364618183,-4.633780918544,2022-05-01,2022-09-30,true,South West Water Limited,"",""
ukk3104-33400,Widemouth Sand,33400,1988,"",Cornwall,"",England,219840,102400,50.7931022337454,-4.55761549184591,2022-05-01,2022-09-30,true,South West Water Limited,"",""
ukk3104-33500,Summerleaze,33500,1988,"",Cornwall,"",England,220380,106620,50.8311807246575,-4.55202825641337,2022-05-01,2022-09-30,true,South West Water Limited,"",""
ukk3104-33600,Crooklets,33600,1988,"",Cornwall,"",England,220260,107140,50.835814903174,-4.55398560359646,2022-05-01,2022-09-30,true,South West Water Limited,"",""
ukk3104-33650,Northcott Mouth,33650,2018,"",Cornwall,"",England,220100,108500,50.8479754597421,-4.55691218098033,2022-05-01,2022-09-30,false,South West Water Limited,"",""
ukk3104-33700,Sandymouth,33700,1988,"",Cornwall,"",England,220160,109940,50.8609376590203,-4.55677993814878,2022-05-01,2022-09-30,false,South West Water Limited,"",""
ukk3105-30100,Perranuthnoe,30100,1988,"",Cornwall,"",England,153980,29250,50.1122525406346,-5.44245580831161,2022-05-01,2022-09-30,false,South West Water Limited,"",""
ukk3105-30200,Marazion,30200,1988,"",Cornwall,"",England,151317,30962,50.1265050340743,-5.480736172252,2022-05-01,2022-09-30,true,South West Water Limited,"",""
ukk3105-30300,Long Rock,30300,1988,"",Cornwall,"",England,148650,31070,50.1263574538717,-5.51805830864849,2022-05-01,2022-09-30,true,South West Water Limited,"",""
ukk3105-30400,Penzance,30400,1988,"",Cornwall,"",England,147340,29830,50.1146703148637,-5.53552896653342,2022-05-01,2022-09-30,true,South West Water Limited,"",""
ukk3105-30500,Wherry Town,30500,1988,"",Cornwall,"",England,146643,29224,50.1089269853027,-5.5448462256399,2022-05-01,2022-09-30,true,South West Water Limited,"",""
ukk3105-30600,Porthcurno,30600,1988,"",Cornwall,"",England,138740,22250,50.0429147873402,-5.65039285876609,2022-05-01,2022-09-30,false,South West Water Limited,"",""
ukk3105-30700,Sennen,30700,1988,"",Cornwall,"",England,135560,26400,50.0787565561387,-5.69757684991096,2022-05-01,2022-09-30,false,South West Water Limited,"",""
ukk3105-30750,Gwynver,30750,2018,"",Cornwall,"",England,136240,27543,50.0893106134689,-5.68887099641775,2022-05-01,2022-09-30,false,South West Water Limited,"",""
ukk3105-30800,Porthmeor,30800,1988,"",Cornwall,"",England,151590,40840,50.2153000175372,-5.48338305416661,2022-05-01,2022-09-30,false,South West Water Limited,"",""
ukk3105-30900,Porthgwidden,30900,1988,"",Cornwall,"",England,152080,41030,50.2172111971261,-5.47665213877545,2022-05-01,2022-09-30,false,South West Water Limited,"",""
ukk3105-31000,Porthminster,31000,1988,"",Cornwall,"",England,152060,40080,50.2086747709166,-5.47631146879273,2022-05-01,2022-09-30,false,South West Water Limited,"",""
ukk3105-31100,Carbis Bay,31100,1988,"",Cornwall,"",England,152820,38940,50.1987589771395,-5.46493862733191,2022-05-01,2022-09-30,false,South West Water Limited,"",""
ukk3105-31200,Porthkidney Sands,31200,1988,"",Cornwall,"",England,154620,38340,50.1941216239555,-5.43937723793687,2022-05-01,2022-09-30,false,South West Water Limited,"",""
ukk3105-31250,Mexico Towans,31250,2018,"",Cornwall,"",England,155770,39060,50.2010542679701,-5.42374749148339,2022-05-01,2022-09-30,false,South West Water Limited,"",""
ukk3105-31300,Hayle Towans,31300,1988,"",Cornwall,"",England,156270,39450,50.2047682940131,-5.41701497977548,2022-05-01,2022-09-30,false,South West Water Limited,"",""
ukk3105-31350,Upton Towans,31350,2018,"",Cornwall,"",England,157332,40563,50.2151901369931,-5.4028607650972,2022-05-01,2022-09-30,false,South West Water Limited,"",""
ukk3105-31400,Gwithian Towans,31400,1988,"",Cornwall,"",England,158180,41950,50.2279961593516,-5.39189088555596,2022-05-01,2022-09-30,true,South West Water Limited,"",""
ukk3105-31450,Godrevy Towans,31450,2018,"",Cornwall,"",England,158194,42479,50.2327443602709,-5.39202170810627,2022-05-01,2022-09-30,false,South West Water Limited,"",""
ukk3106-27100,Readymoney Cove,27100,1988,"",Cornwall,"",England,211830,51080,50.3295366717995,-4.6451849978973,2022-05-01,2022-09-30,true,South West Water Limited,"",""
ukk3106-27200,Polkerris,27200,1988,"",Cornwall,"",England,209280,52100,50.3378794985352,-4.68148770272917,2022-05-01,2022-09-30,true,South West Water Limited,"",""
ukk3106-27300,Par Sands,27300,1988,"",Cornwall,"",England,208510,53140,50.3469722189893,-4.69282422743833,2022-05-01,2022-09-30,true,South West Water Limited,"",""
ukk3106-27400,Shorthorn Beach,27400,1988,"",Cornwall,"",England,206330,52180,50.3376351846938,-4.72293484370012,2022-05-01,2022-09-30,true,South West Water Limited,"",""
ukk3106-27500,Crinnis Beach,27500,1988,"",Cornwall,"",England,205550,52040,50.3361204799296,-4.73381042662777,2022-05-01,2022-09-30,true,South West Water Limited,"",""
ukk3106-27600,Charlestown,27600,1988,"",Cornwall,"",England,204000,51550,50.3312049763154,-4.75530986762393,2022-05-01,2022-09-30,false,South West Water Limited,"",""
ukk3106-27700,Duporth,27700,1988,"",Cornwall,"",England,203520,51150,50.3274519056748,-4.7618374566786,2022-05-01,2022-09-30,true,South West Water Limited,"",""
ukk3106-27800,Porthpean,27800,1988,"",Cornwall,"",England,203230,50730,50.323582322786,-4.76568765910925,2022-05-01,2022-09-30,true,South West Water Limited,"",""
ukk3106-27900,Pentewan,27900,1988,"",Cornwall,"",England,201880,46770,50.2875583923612,-4.78255130253817,2022-05-01,2022-09-30,false,South West Water Limited,"",""
ukk3106-28000,Polstreath,28000,1988,"",Cornwall,"",England,201710,45310,50.2743864942043,-4.78416897141297,2022-05-01,2022-09-30,false,South West Water Limited,"",""
ukk3106-28100,Portmellon,28100,1988,"",Cornwall,"",England,201560,43920,50.2618500765446,-4.78554234471881,2022-05-01,2022-09-30,true,South West Water Limited,"",""
ukk3106-28200,Gorran Haven Little Perhaver,28200,1988,"",St. Goran,"",England,201330,41590,50.240842939759,-4.78754286817743,2022-05-01,2022-09-30,true,South West Water Limited,"",""
ukk3106-28300,Vault Beach,28300,1988,"",Cornwall,"",England,201300,40930,50.2349042272139,-4.78761701530411,2022-05-01,2022-09-30,false,South West Water Limited,"",""
ukk3106-28400,Porthluney,28400,1988,"",Cornwall,"",England,197340,41290,50.2367931235688,-4.84326651369793,2022-05-01,2022-09-30,true,South West Water Limited,"",""
ukk3106-32100,Crantock,32100,1988,"",Cornwall,"",England,178460,60980,50.4068339291915,-5.11918706120216,2022-05-01,2022-09-30,true,South West Water Limited,"",""
ukk3106-32150,Fistral South,32150,2018,"",Cornwall,"",England,179750,61743,50.4141638052486,-5.10149764441901,2022-05-01,2022-09-30,false,South West Water Limited,"",""
ukk3106-32200,Fistral North,32200,1988,"",Cornwall,"",England,179980,62130,50.4177321832166,-5.09850302983969,2022-05-01,2022-09-30,false,South West Water Limited,"",""
ukk3106-32300,Towan,32300,1988,"",Cornwall,"",England,180977,61791,50.4182930793456,-5.08417872138159,2022-05-01,2022-09-30,false,South West Water Limited,"",""
ukk3106-32310,Great Western,32310,1996,"",Cornwall,"",England,181530,61870,50.415976061967,-5.07656644368544,2022-05-01,2022-09-30,false,South West Water Limited,"",""
ukk3106-32320,Tolcarne,32320,1996,"",Cornwall,"",England,181760,62050,50.4176780168458,-5.07343859800726,2022-05-01,2022-09-30,false,South West Water Limited,"",""
ukk3106-32330,Lusty Glaze,32330,1996,"",Cornwall,"",England,182380,62480,50.4217696277222,-5.06497385525916,2022-05-01,2022-09-30,false,South West Water Limited,"",""
ukk3106-32340,Porth,32340,1996,"",Cornwall,"",England,182960,62780,50.4246784173834,-5.05699471231187,2022-05-01,2022-09-30,true,South West Water Limited,"",""
ukk3106-32400,Watergate Bay,32400,1988,"",Cornwall,"",England,184070,64860,50.4437670324647,-5.04258913278166,2022-05-01,2022-09-30,false,South West Water Limited,"",""
ukk3106-32500,Mawgan Porth,32500,1988,"",Cornwall,"",England,184830,67470,50.4674853014895,-5.03340112417438,2022-05-01,2022-09-30,true,South West Water Limited,"",""
ukk4100-26400,Plymouth Hoe East,26400,1988,"",City of Plymouth,"",England,247830,53750,50.36393709632,-4.14087672941162,2022-05-01,2022-09-30,true,South West Water Limited,"",""
ukk4100-26500,Plymouth Hoe West,26500,1988,"",City of Plymouth,"",England,247500,53770,50.3640313505814,-4.14552119217669,2022-05-01,2022-09-30,true,South West Water Limited,"",""
ukk4200-23100,Maidencombe,23100,1988,"",Torbay,"",England,292780,68500,50.5064562259524,-3.51338465782657,2022-05-01,2022-09-30,false,South West Water Limited,"",""
ukk4200-23200,Watcombe,23200,1988,"",Torbay,"",England,292620,67300,50.4956390390941,-3.51529477213459,2022-05-01,2022-09-30,true,South West Water Limited,"",""
ukk4200-23300,Oddicombe,23300,1988,"",Torbay,"",England,292619,65835,50.4824686796969,-3.51488751237418,2022-05-01,2022-09-30,false,South West Water Limited,"",""
ukk4200-23400,Babbacombe,23400,1988,"",Torbay,"",England,293000,65450,50.4790773297118,-3.50940906870732,2022-05-01,2022-09-30,false,South West Water Limited,"",""
ukk4200-23501,Anstey's Cove (Torquay),23501,2004,"",Torbay,"",England,293574,64634,50.4718461526252,-3.50108973053771,2022-05-01,2022-09-30,false,South West Water Limited,"",""
ukk4200-23600,Meadfoot,23600,1988,"",Torbay,"",England,292964,63007,50.45710033434104,-3.50920608022892,2022-05-01,2022-09-30,false,South West Water Limited,"",""
ukk4200-23700,Beacon Cove,23700,1988,"",Torbay,"",England,291950,63070,50.4574885725162,-3.52351410410433,2022-05-01,2022-09-30,false,South West Water Limited,"",""
ukk4200-23800,Torre Abbey,23800,1988,"",Torbay,"",England,291076,63641,50.4624599354331,-3.53598815062672,2022-05-01,2022-09-30,true,South West Water Limited,"",""
ukk4200-23900,Hollicombe,23900,1988,"",Torbay,"",England,289800,62150,50.4488175353543,-3.55351938394781,2022-05-01,2022-09-30,true,South West Water Limited,"",""
ukk4200-24000,Paignton Preston Sands,24000,1988,"",Torbay,"",England,289600,61670,50.4444648040581,-3.55619366506286,2022-05-01,2022-09-30,true,South West Water Limited,"",""
ukk4200-24100,Paignton Paignton Sands,24100,1988,"",Torbay,"",England,289390,60630,50.4350758512284,-3.55884281266126,2022-05-01,2022-09-30,true,South West Water Limited,"",""
ukk4200-24200,Goodrington,24200,1988,"",Torbay,"",England,289317,59350,50.4235551500871,-3.55949213612794,2022-05-01,2022-09-30,true,South West Water Limited,"",""
ukk4200-24300,Broadsands,24300,1988,"",Torbay,"",England,289642,57393,50.4060232848898,-3.5543427608734,2022-05-01,2022-09-30,false,South West Water Limited,"",""
ukk4200-24500,Breakwater Beach (Shoalstone),24500,1988,"",Torbay,"",England,293170,56660,50.4000863050536,-3.50450585727642,2022-05-01,2022-09-30,false,South West Water Limited,"",""
ukk4200-24600,St Mary's Bay (Devon),24600,1988,"",Torbay,"",England,293200,55010,50.3852581354791,-3.50361446794103,2022-05-01,2022-09-30,false,South West Water Limited,"",""
ukk4301-21600,Seaton (Devon),21600,1988,"",East Devon,"",England,324500,89850,50.7033764462276,-3.07051758079577,2022-05-01,2022-09-30,true,South West Water Limited,"",""
ukk4301-21700,Beer,21700,1988,"",East Devon,"",England,323121,89111,50.6965510583491,-3.08988755469152,2022-05-01,2022-09-30,true,South West Water Limited,"",""
ukk4301-21800,Sidmouth Town,21800,1988,"",East Devon,"",England,312267,87019,50.6761962719193,-3.24302255326324,2022-05-01,2022-09-30,true,South West Water Limited,"",""
ukk4301-21900,Sidmouth Jacobs Ladder,21900,1988,"",East Devon,"",England,311920,86921,50.6752708713685,-3.24791989088234,2022-05-01,2022-09-30,false,South West Water Limited,"",""
ukk4301-22000,Ladram Bay,22000,1988,"",East Devon,"",England,309653,85106,50.6586051443979,-3.27955125815206,2022-05-01,2022-09-30,true,South West Water Limited,"",""
ukk4301-22100,Budleigh Salterton,22100,1988,"",East Devon,"",England,306860,81900,50.6293413385572,-3.31824703910801,2022-05-01,2022-09-30,true,South West Water Limited,"",""
ukk4301-22200,Sandy Bay,22200,1988,"",East Devon,"",England,303300,79800,50.6098814242925,-3.36801763242127,2022-05-01,2022-09-30,false,South West Water Limited,"",""
ukk4301-22300,Exmouth,22300,1988,"",East Devon,"",England,300920,79980,50.6110998013266,-3.4016913116056,2022-05-01,2022-09-30,true,South West Water Limited,"",""
ukk4304-34000,Instow,34000,1988,2018,Instow,Devon,England,247170,130440,51.0529219112311,-4.18192398262648,2017-05-01,2017-09-30,true,South West Water Limited,"",""
ukk4304-34100,Saunton Sands,34100,1988,"",North Devon,Devon,England,244550,137600,51.1165533083077,-4.22235814569862,2022-05-01,2022-09-30,false,South West Water Limited,"",""
ukk4304-34200,Croyde Bay,34200,1988,"",North Devon,Devon,England,243470,139300,51.1315339064881,-4.2385145390611,2022-05-01,2022-09-30,true,South West Water Limited,"",""
ukk4304-34300,Putsborough,34300,1988,"",North Devon,Devon,England,244750,140850,51.1458097096823,-4.22090410376103,2022-05-01,2022-09-30,false,South West Water Limited,"",""
ukk4304-34400,Woolacombe Village,34400,1988,"",North Devon,Devon,England,245620,143700,51.1716532720556,-4.20969992434162,2022-05-01,2022-09-30,true,South West Water Limited,"",""
ukk4304-34410,"Combesgate Beach, Woolacombe",34410,1999,"",Mortehoe,Devon,England,245450,144440,51.1782564135866,-4.21244811030368,2022-05-01,2022-09-30,true,South West Water Limited,"",""
ukk4304-34450,Ilfracombe Tunnels Beach,34450,1990,"",North Devon,Devon,England,251508,147845,51.210459434379,-4.12725441460376,2022-05-01,2022-09-30,false,South West Water Limited,"",""
ukk4304-34500,Ilfracombe Wildersmouth,34500,1988,2020,North Devon,Devon,England,251909,147841,51.2105276899336,-4.12151613905344,2019-05-01,2019-09-30,true,South West Water Limited,"",""
ukk4304-34600,Ilfracombe Hele,34600,1988,"",North Devon,Devon,England,253602,147830,51.2108656669018,-4.0972915813212,2022-05-01,2022-09-30,true,South West Water Limited,"",""
ukk4304-34700,Combe Martin,34700,1988,"",Combe Martin,Devon,England,257720,147320,51.2073242902331,-4.03817464897342,2022-05-01,2022-09-30,true,South West Water Limited,"",""
ukk4304-34800,Lynmouth,34800,1988,"",North Devon,Devon,England,272713,149638,51.2316903847566,-3.82448058712367,2022-05-01,2022-09-30,true,South West Water Limited,"",""
ukk4305-24700,Dartmouth Castle and Sugary Cove,24700,1988,"",South Hams,Devon,England,288700,50300,50.3420804667083,-3.56549282824257,2022-05-01,2022-09-30,false,South West Water Limited,"",""
ukk4305-24800,Blackpool Sands,24800,1988,"",South Hams,Devon,England,285500,47850,50.3194415592079,-3.60970013678095,2022-05-01,2022-09-30,false,South West Water Limited,"",""
ukk4305-24900,Slapton Sands Monument,24900,1988,"",South Hams,Devon,England,282900,44180,50.2859383650832,-3.64506666217138,2022-05-01,2022-09-30,false,South West Water Limited,"",""
ukk4305-25000,Slapton Sands Torcross,25000,1988,"",South Hams,Devon,England,282350,42000,50.2662314933333,-3.65210482762187,2022-05-01,2022-09-30,false,South West Water Limited,"",""
ukk4305-25100,Mill Bay,25100,1988,"",South Hams,Devon,England,274070,38160,50.2300039657805,-3.76694720248013,2022-05-01,2022-09-30,false,South West Water Limited,"",""
ukk4305-25200,Salcombe North Sands,25200,1988,"",South Hams,Devon,England,273100,38200,50.2301559496311,-3.78055344549862,2022-05-01,2022-09-30,true,South West Water Limited,"",""
ukk4305-25300,Salcombe South Sands,25300,1988,"",South Hams,Devon,England,272850,37750,50.2260571096317,-3.78390577803484,2022-05-01,2022-09-30,true,South West Water Limited,"",""
ukk4305-25400,Hope Cove,25400,1988,"",South Hams,Devon,England,267532,39726,50.2426503738911,-3.85911026105057,2022-05-01,2022-09-30,true,South West Water Limited,"",""
ukk4305-25500,Thurlestone South,25500,1988,"",South Hams,Devon,England,267650,41700,50.2604204594602,-3.8581465942212,2022-05-01,2022-09-30,false,South West Water Limited,"",""
ukk4305-25600,Thurlestone North,25600,1988,"",South Hams,Devon,England,267400,42100,50.2639597894144,-3.8617921920091,2022-05-01,2022-09-30,false,South West Water Limited,"",""
ukk4305-25700,Bantham,25700,1988,"",South Hams,Devon,England,266230,43800,50.2789762008753,-3.87879994454741,2022-05-01,2022-09-30,true,South West Water Limited,"",""
ukk4305-25800,Bigbury-on-Sea South,25800,1988,"",South Hams,Devon,England,265080,44130,50.2816804127364,-3.89504849620995,2022-05-01,2022-09-30,true,South West Water Limited,"",""
ukk4305-25900,Bigbury-on-Sea North,25900,1988,"",South Hams,Devon,England,264950,44300,50.2831786856372,-3.89693283004622,2022-05-01,2022-09-30,false,South West Water Limited,"",""
ukk4305-26000,Challaborough,26000,1988,"",South Hams,Devon,England,264920,44800,50.2876660183821,-3.8975324484694,2022-05-01,2022-09-30,true,South West Water Limited,"",""
ukk4305-26100,Mothecombe,26100,1988,"",South Hams,Devon,England,261050,47340,50.3095964397627,-3.9527590608114,2022-05-01,2022-09-30,true,South West Water Limited,"",""
ukk4305-26200,Wembury,26200,1988,"",South Hams,Devon,England,251650,48530,50.3179995357829,-4.08514969835292,2022-05-01,2022-09-30,true,South West Water Limited,"",""
ukk4305-26300,Bovisand,26300,1988,"",South Hams,Devon,England,249260,50550,50.3355467312948,-4.11950426310401,2022-05-01,2022-09-30,false,South West Water Limited,"",""
ukk4306-22400,Dawlish Warren,22400,1988,"",Teignbridge,Devon,England,298260,78760,50.5996735928448,-3.43893853887074,2022-05-01,2022-09-30,false,South West Water Limited,"",""
ukk4306-22500,Dawlish Town,22500,1988,"",Teignbridge,Devon,England,296467,76705,50.5808755605953,-3.46368056448373,2022-05-01,2022-09-30,true,South West Water Limited,"",""
ukk4306-22600,Dawlish Coryton Cove,22600,1988,"",Teignbridge,Devon,England,296110,76040,50.5748417973404,-3.46854598688217,2022-05-01,2022-09-30,false,South West Water Limited,"",""
ukk4306-22700,Teignmouth Holcombe,22700,1988,"",Teignbridge,Devon,England,295650,74610,50.5619041154044,-3.47463850962763,2022-05-01,2022-09-30,false,South West Water Limited,"",""
ukk4306-22800,Teignmouth Town,22800,1988,"",Teignbridge,Devon,England,294280,72800,50.5453859284211,-3.49345952739525,2022-05-01,2022-09-30,true,South West Water Limited,"",""
ukk4306-22900,Shaldon,22900,1988,"",Teignbridge,Devon,England,293636,72196,50.5398391331368,-3.50237277395838,2022-05-01,2022-09-30,true,South West Water Limited,"",""
ukk4306-23000,Ness Cove,23000,1988,"",Teignbridge,Devon,England,293925,71776,50.5361159346401,-3.4981762447304,2022-05-01,2022-09-30,false,South West Water Limited,"",""
ukk4307-33800,Hartland Quay,33800,1988,"",Torridge,Devon,England,222300,124850,50.9955446624716,-4.53367543882316,2022-05-01,2022-09-30,false,South West Water Limited,"",""
ukk4307-33900,Westward Ho!,33900,1988,"",Torridge,Devon,England,243338,129537,51.0437749741397,-4.23616288248315,2022-05-01,2022-09-30,false,South West Water Limited,"",""
