EUBWID,,Site Name in Files,,,,district,,,,,lat,long,seasonStartDate,seasonFinishDate,pollutionRiskForecasting,,,,region
ukd5300-41300,,Ainsdale,,,,Sefton,,,,,53.60792741,-3.063987798,01/05/2022,30/09/2022,TRUE,,,,North West
ukd1101-46100,,Allonby,,,,Allerdale,,,,,54.76803625,-3.434625292,01/05/2022,30/09/2022,TRUE,,,,North West
ukd1101-46000,,Allonby_South,,,,Allerdale,,,,,54.74396018,-3.456453603,01/05/2019,30/09/2019,TRUE,,,,North West
ukc2101-04250,,Amble_Links,,,,Northumberland,,,,,55.32565184,-1.552400659,01/05/2022,30/09/2022,FALSE,,,,North East
ukf3102-09400,,Anderby,,,,Lincolnshire,,,,,53.25977424,0.325519541,01/05/2022,30/09/2022,FALSE,,,,East Midlands
ukk4200-23501,,Ansteys_Cove_Torquay,,,,Torbay,,,,,50.47184615,-3.501089731,01/05/2022,30/09/2022,FALSE,,,,South West
ukk4200-23400,,Babbacombe,,,,Torbay,,,,,50.47907733,-3.509409069,01/05/2022,30/09/2022,FALSE,,,,South West
ukc2102-03700,,Bamburgh_Castle,,,,Northumberland,,,,,55.61096248,-1.707903477,01/05/2022,30/09/2022,FALSE,,,,North East
ukk4305-25700,,Bantham,,,,South Hams,,,,,50.2789762,-3.878799945,01/05/2022,30/09/2022,TRUE,,,,South West
ukj3307-16350,,Beachlands_Central,,,,Havant,,,,,50.78359334,-0.989275631,01/05/2022,30/09/2022,FALSE,,,,South East
ukj3307-16400,,Beachlands_West,,,,Havant,,,,,50.78360723,-1.001332856,01/05/2022,30/09/2022,FALSE,,,,South East
ukk4200-23700,,Beacon_Cove,,,,Torbay,,,,,50.45748857,-3.523514104,01/05/2022,30/09/2022,FALSE,,,,South West
ukc2102-03900,,Beadnell,,,,Northumberland,,,,,55.5487603,-1.632287511,01/05/2022,30/09/2022,FALSE,,,,North East
ukk4301-21700,,Beer,,,,East Devon,,,,,50.69655106,-3.089887555,01/05/2022,30/09/2022,TRUE,,,,South West
ukj3400-18200,,Bembridge,,,,Isle of Wight,,,,,50.68622183,-1.069693125,01/05/2022,30/09/2022,TRUE,,,,South East
ukk2302-35500,,Berrow_North_of_Unity_Farm,,,,Sedgemoor,,,,,51.28174586,-3.017755193,01/05/2022,30/09/2022,FALSE,,,,South West
ukj2205-14200,,Bexhill,,,,Rother,,,,,50.83653388,0.470332162,01/05/2022,30/09/2022,TRUE,,,,South East
ukk4305-25900,,Bigbury-on-Sea_North,,,,South Hams,,,,,50.28317869,-3.89693283,01/05/2022,30/09/2022,FALSE,,,,South West
ukk4305-25800,,Bigbury-on-Sea_South,,,,South Hams,,,,,50.28168041,-3.895048496,01/05/2022,30/09/2022,TRUE,,,,South West
ukj2201-14550,,Birling_Gap,,,,Wealden,,,,,50.74259534,0.20066902,01/05/2022,30/09/2022,FALSE,,,,South East
ukd4200-42600,,Bispham,,,,Blackpool,,,,,53.84890019,-3.054890542,01/05/2022,30/09/2022,TRUE,,,,North West
ukd4200-42300,,Blackpool_Central,,,,Blackpool,,,,,53.8026523,-3.056219151,01/05/2022,30/09/2022,TRUE,,,,North West
ukd4200-42500,,Blackpool_North,,,,Blackpool,,,,,53.81612266,-3.056588326,01/05/2022,30/09/2022,TRUE,,,,North West
ukk4305-24800,,Blackpool_Sands,,,,South Hams,,,,,50.31944156,-3.609700137,01/05/2022,30/09/2022,FALSE,,,,South West
ukd4200-42100,,Blackpool_South,,,,Blackpool,,,,,53.79063629,-3.059104944,01/05/2022,30/09/2022,TRUE,,,,North West
ukk2305-35200,,Blue_Anchor_West,,,,Somerset West and Taunton,,,,,51.18241849,-3.401198912,01/05/2022,30/09/2022,TRUE,,,,South West
ukc2103-04600,,Blyth_South_Beach,,,,Northumberland,,,,,55.10887436,-1.496828271,01/05/2022,30/09/2022,TRUE,,,,North East
ukj2402-15700,,Bognor_Regis_Aldwick,,,,Arun,,,,,50.77925616,-0.691360026,01/05/2022,30/09/2022,TRUE,,,,South East
ukj2402-15680,,Bognor_Regis_East,,,,Arun,,,,,50.78236249,-0.669428029,01/05/2022,30/09/2022,TRUE,,,,South East
ukk3104-32750,,Boobys_Bay,,,,Cornwall,,,,,50.53904519,-5.025815465,01/05/2022,30/09/2022,FALSE,,,,South West
ukj4210-12660,,"Botany_Bay,_Broadstairs",,,,Thanet,,,,,51.38944566,1.4352576,01/05/2022,30/09/2022,FALSE,,,,South East
ukk2101-19160,,Bournemouth_Alum_Chine,,,,"Bournemouth, Christchurch and Poole",,,,,50.7111346,-1.89542149,01/05/2022,30/09/2022,FALSE,,,,South West
ukk2101-19060,,Bournemouth_Boscombe_Pier,,,,"Bournemouth, Christchurch and Poole",,,,,50.71946751,-1.844038808,01/05/2022,30/09/2022,TRUE,,,,South West
ukk2101-19150,,Bournemouth_Durley_Chine,,,,"Bournemouth, Christchurch and Poole",,,,,50.71307087,-1.888760306,01/05/2022,30/09/2022,FALSE,,,,South West
ukk2101-19030,,Bournemouth_Fishermans_Walk,,,,"Bournemouth, Christchurch and Poole",,,,,50.72072304,-1.816878602,01/05/2022,30/09/2022,FALSE,,,,South West
ukk2101-19000,,Bournemouth_Hengistbury_West,,,,"Bournemouth, Christchurch and Poole",,,,,50.71684737,-1.77109905,01/05/2022,30/09/2022,FALSE,,,,South West
ukk2101-19050,,Bournemouth_Manor_Steps,,,,"Bournemouth, Christchurch and Poole",,,,,50.72026046,-1.83228185,01/05/2022,30/09/2022,FALSE,,,,South West
ukk2101-19100,,Bournemouth_Pier,,,,"Bournemouth, Christchurch and Poole",,,,,50.71548593,-1.875879236,01/05/2022,30/09/2022,FALSE,,,,South West
ukk2101-19020,,Bournemouth_Southbourne,,,,"Bournemouth, Christchurch and Poole",,,,,50.71899027,-1.791727608,01/05/2022,30/09/2022,FALSE,,,,South West
ukk4305-26300,,Bovisand,,,,South Hams,,,,,50.33554673,-4.119504263,01/05/2022,30/09/2022,FALSE,,,,South West
ukk2206-20400,,Bowleaze_Cove,,,,Dorset,,,,,50.63620687,-2.422250206,01/05/2022,30/09/2022,FALSE,,,,South West
ukj2403-16000,,Bracklesham_Bay,,,,Chichester,,,,,50.76101317,-0.860567028,01/05/2022,30/09/2022,FALSE,,,,South East
ukk4200-24500,,Breakwater_Beach_Shoalstone,,,,Torbay,,,,,50.40008631,-3.504505857,01/05/2022,30/09/2022,FALSE,,,,South West
ukk2302-35600,,Brean,,,,Sedgemoor,,,,,51.32123798,-3.011654923,01/05/2022,30/09/2022,FALSE,,,,South West
uke1200-08000,,Bridlington_North_Beach,,,,East Riding of Yorkshire,,,,,54.08675644,-0.182691651,01/05/2022,30/09/2022,TRUE,,,,Yorkshire and The Humber
uke1200-08100,,Bridlington_South_Beach,,,,East Riding of Yorkshire,,,,,54.07720861,-0.198744945,01/05/2022,30/09/2022,TRUE,,,,Yorkshire and The Humber
ukh3311-11700,,Brightlingsea,,,,Tendring,,,,,51.80571144,1.010494962,01/05/2022,30/09/2022,TRUE,,,,East of England
ukj2100-14950,,Brighton_Central,,,,The City of Brighton and Hove,,,,,50.82027276,-0.145883429,01/05/2022,30/09/2022,FALSE,,,,South East
ukj2100-14900,,Brighton_Kemptown,,,,The City of Brighton and Hove,,,,,50.8159632,-0.122161895,01/05/2022,30/09/2022,FALSE,,,,South East
ukk4200-24300,,Broadsands,,,,Torbay,,,,,50.40602328,-3.554342761,01/05/2022,30/09/2022,FALSE,,,,South West
ukj4210-12750,,"Broadstairs,_Stone_Bay",,,,Thanet,,,,,51.36543951,1.445285432,01/05/2022,30/09/2022,FALSE,,,,South East
ukj4210-12800,,"Broadstairs,_Viking_Bay",,,,Thanet,,,,,51.35773664,1.442939769,01/05/2022,30/09/2022,TRUE,,,,South East
ukk4301-22100,,Budleigh_Salterton,,,,East Devon,,,,,50.62934134,-3.318247039,01/05/2022,30/09/2022,TRUE,,,,South West
ukk2302-35300,,Burnham_Jetty_North,,,,Sedgemoor,,,,,51.2357,-2.9994,01/05/2019,30/09/2019,TRUE,,,,South West
ukh1303-10350,,Caister_Point,,,,Great Yarmouth,,,,,52.64623297,1.737401191,01/05/2022,30/09/2022,FALSE,,,,East of England
ukj3308-16900,,Calshot,,,,New Forest,,,,,50.80932353,-1.318168307,01/05/2022,30/09/2022,FALSE,,,,South East
ukj2204-13900,,Camber,,,,Rother,,,,,50.93321366,0.796331259,01/05/2022,30/09/2022,FALSE,,,,South East
ukk3105-31100,,Carbis_Bay,,,,Cornwall,,,,,50.19875898,-5.464938627,01/05/2022,30/09/2022,FALSE,,,,South West
ukk3101-26530,,Cawsand,,,,Cornwall,,,,,50.33087703,-4.201357187,01/05/2022,30/09/2022,FALSE,,,,South West
uke2206-07500,,Cayton_Bay,,,,Scarborough,,,,,54.24478304,-0.362946553,01/05/2022,30/09/2022,FALSE,,,,Yorkshire and The Humber
ukk4305-26000,,Challaborough,,,,South Hams,,,,,50.28766602,-3.897532448,01/05/2022,30/09/2022,TRUE,,,,South West
ukk3102-31650,,Chapel_Porth,,,,Cornwall,,,,,50.3004,-5.2348,01/05/2022,30/09/2022,FALSE,,,,South West
ukf3102-09500,,Chapel_St_Leonards,,,,Chapel St. Leonards,,,,,53.2236447,0.339965692,01/05/2022,30/09/2022,FALSE,,,,East Midlands
ukk3106-27600,,Charlestown,,,,Cornwall,,,,,50.33120498,-4.755309868,01/05/2022,30/09/2022,FALSE,,,,South West
ukk2205-21300,,Charmouth_West,,,,Dorset,,,,,50.73356001,-2.904564296,01/05/2022,30/09/2022,TRUE,,,,South West
ukk2201-18800,,Christchurch_Avon_Beach,,,,"Bournemouth, Christchurch and Poole",,,,,50.72926781,-1.733662117,01/05/2022,30/09/2022,FALSE,,,,South West
ukk2201-17200,,Christchurch_Bay,,,,New Forest,,,,,50.7343361,-1.662712354,01/05/2022,30/09/2022,FALSE,,,,South East
ukk2201-18750,,Christchurch_Friars_Cliff,,,,"Bournemouth, Christchurch and Poole",,,,,50.73206374,-1.729409648,01/05/2022,30/09/2022,FALSE,,,,South West
ukk2201-18700,,Christchurch_Highcliffe_Castle,,,,"Bournemouth, Christchurch and Poole",,,,,50.73565217,-1.714453362,01/05/2022,30/09/2022,FALSE,,,,South West
ukk2201-18900,,Christchurch_Mudeford_Sandbank_East,,,,"Bournemouth, Christchurch and Poole",,,,,50.71925102,-1.742147286,01/05/2022,30/09/2022,FALSE,,,,South West
ukk3103-29501,,Church_Cove,,,,Cornwall,,,,,50.03858573,-5.267882204,01/05/2022,30/09/2022,TRUE,,,,South West
ukk2206-20500,,Church_Ope_Cove,,,,Dorset,,,,,50.53799179,-2.428088941,01/05/2022,30/09/2022,FALSE,,,,South West
ukh3311-11500,,Clacton,,,,Tendring,,,,,51.79309928,1.171275828,01/05/2022,30/09/2022,TRUE,,,,East of England
ukh3311-11550,,Clacton_Groyne_41,,,,Tendring,,,,,51.785,1.1535,01/05/2019,30/09/2019,FALSE,,,,East of England
ukh3311-11650,,Clacton_Beach_Martello_Tower,,,,Tendring,,,,,51.77999703,1.140050759,01/05/2022,30/09/2022,TRUE,,,,East of England
uke1301-09000,,Cleethorpes,,,,North East Lincolnshire,,,,,53.55682662,-0.022225057,01/05/2022,30/09/2022,TRUE,,,,Yorkshire and The Humber
ukk1202-36000,,Clevedon_Beach,,,,North Somerset,,,,,51.44224,-2.86146,01/05/2022,30/09/2022,TRUE,,,,South West
ukd4312-42800,,Cleveleys,,,,Wyre,,,,,53.88131763,-3.048100349,01/05/2022,30/09/2022,TRUE,,,,North West
ukj3400-17600,,Colwell_Bay,,,,Isle of Wight,,,,,50.68947777,-1.538470268,01/05/2022,30/09/2022,TRUE,,,,South East
ukf1400-09750,,Colwick_Country_Park_West_Lake,,,,City of Nottingham,,,,,52.94514355,-1.098157379,01/05/2022,30/09/2022,FALSE,,,,East Midlands
ukk4304-34700,,Combe_Martin,,,,Combe Martin,,,,,51.20732429,-4.038174649,01/05/2022,30/09/2022,TRUE,,,,South West
ukk4304-34410,,"Combesgate_Beach,_Woolacombe",,,,Mortehoe,,,,,51.17825641,-4.21244811,01/05/2022,30/09/2022,TRUE,,,,South West
ukj3400-17400,,Compton_Bay,,,,Isle of Wight,,,,,50.65608555,-1.468319236,01/05/2022,30/09/2022,FALSE,,,,South East
ukk3104-32700,,Constantine_Bay,,,,Cornwall,,,,,50.5332515,-5.022660559,01/05/2022,30/09/2022,FALSE,,,,South West
ukk1302-11760,,Cotswold_Country_Park_and_Beach,,,,Cotswold,,,,,51.66098532,-1.96093036,01/05/2022,30/09/2022,FALSE,,,,South West
ukk3103-29100,,Coverack,,,,Cornwall,,,,,50.02438167,-5.097117317,01/05/2022,30/09/2022,TRUE,,,,South West
ukj3400-17800,,Cowes,,,,Isle of Wight,,,,,50.76785154,-1.309383644,01/05/2022,30/09/2022,TRUE,,,,South East
ukk3104-33360,,Crackington_Haven,,,,St. Gennys,,,,,50.74193646,-4.633780919,01/05/2022,30/09/2022,TRUE,,,,South West
ukk3106-32100,,Crantock,,,,Cornwall,,,,,50.40683393,-5.119187061,01/05/2022,30/09/2022,TRUE,,,,South West
ukc1404-05900,,Crimdon,,,,County Durham,,,,,54.7280784,-1.248732185,01/05/2022,30/09/2022,TRUE,,,,North East
ukk3106-27500,,Crinnis_Beach,,,,Cornwall,,,,,50.33612048,-4.733810427,01/05/2022,30/09/2022,TRUE,,,,South West
ukh1305-10200,,Cromer,,,,North Norfolk,,,,,52.93251242,1.302162611,01/05/2022,30/09/2022,FALSE,,,,East of England
ukk3104-33600,,Crooklets,,,,Cornwall,,,,,50.8358149,-4.553985604,01/05/2022,30/09/2022,TRUE,,,,South West
ukk4304-34200,,Croyde_Bay,,,,North Devon,,,,,51.13153391,-4.238514539,01/05/2022,30/09/2022,TRUE,,,,South West
uke1200-07950,,"Danes_Dyke,_Flamborough",,,,East Riding of Yorkshire,,,,,54.10403879,-0.141861016,01/05/2022,30/09/2022,FALSE,,,,Yorkshire and The Humber
ukk4305-24700,,Dartmouth_Castle_and_Sugary_Cove,,,,South Hams,,,,,50.34208047,-3.565492828,01/05/2022,30/09/2022,FALSE,,,,South West
ukk4306-22600,,Dawlish_Coryton_Cove,,,,Teignbridge,,,,,50.5748418,-3.468545987,01/05/2022,30/09/2022,FALSE,,,,South West
ukk4306-22500,,Dawlish_Town,,,,Teignbridge,,,,,50.58087556,-3.463680564,01/05/2022,30/09/2022,TRUE,,,,South West
ukk4306-22400,,Dawlish_Warren,,,,Teignbridge,,,,,50.59967359,-3.438938539,01/05/2022,30/09/2022,FALSE,,,,South West
ukk3104-33200,,Daymer_Bay,,,,Cornwall,,,,,50.5613478,-4.926454333,01/05/2022,30/09/2022,FALSE,,,,South West
ukj4204-13100,,Deal_Castle,,,,Dover,,,,,51.22486582,1.404885309,01/05/2022,30/09/2022,FALSE,,,,South East
ukh3311-11100,,Dovercourt,,,,Tendring,,,,,51.92871452,1.273653637,01/05/2022,30/09/2022,FALSE,,,,East of England
ukk3101-26700,,Downderry,,,,Cornwall,,,,,50.36100434,-4.370775756,01/05/2022,30/09/2022,FALSE,,,,South West
ukc2104-04280,,Druridge_Bay_North,,,,Northumberland,,,,,55.29111457,-1.568535756,01/05/2022,30/09/2022,TRUE,,,,North East
ukc2104-04300,,Druridge_Bay_South,,,,Northumberland,,,,,55.24025511,-1.543923843,01/05/2022,30/09/2022,FALSE,,,,North East
ukk2305-35100,,Dunster_Beach,,,,Somerset West and Taunton,,,,,51.1922413,-3.426872624,01/05/2022,30/09/2022,TRUE,,,,South West
ukk3106-27700,,Duporth,,,,Cornwall,,,,,50.32745191,-4.761837457,01/05/2022,30/09/2022,TRUE,,,,South West
ukk2204-20100,,Durdle_Door_East,,,,Dorset,,,,,50.62200948,-2.274158591,01/05/2022,30/09/2022,FALSE,,,,South West
ukk2204-20200,,Durdle_Door_West,,,,Dorset,,,,,50.62194849,-2.277126845,01/05/2022,30/09/2022,FALSE,,,,South West
ukj4208-13600,,Dymchurch,,,,Shepway,,,,,51.02462308,0.996565672,01/05/2022,30/09/2022,FALSE,,,,South East
ukj3400-17850,,East_Cowes,,,,Isle of Wight,,,,,50.76477,-1.28329,01/05/2022,30/09/2022,FALSE,,,,South East
ukk3101-27000,,East_Looe,,,,Cornwall,,,,,50.35258417,-4.45147295,01/05/2022,30/09/2022,TRUE,,,,South West
ukh1305-10150,,East_Runton,,,,North Norfolk,,,,,52.93706193,1.275953324,01/05/2022,30/09/2022,FALSE,,,,East of England
ukj2201-14500,,Eastbourne,,,,Eastbourne,,,,,50.76096183,0.287079794,01/05/2022,30/09/2022,TRUE,,,,South East
ukj3100-16500,,Eastney,,,,City of Portsmouth,,,,,50.78463945,-1.045144414,01/05/2022,30/09/2022,FALSE,,,,South East
ukj3307-16300,,Eastoke,,,,Havant,,,,,50.7806136,-0.96735398,01/05/2022,30/09/2022,FALSE,,,,South East
ukk4301-22300,,Exmouth,,,,East Devon,,,,,50.6110998,-3.401691312,01/05/2022,30/09/2022,TRUE,,,,South West
ukk2205-21100,,Eypemouth,,,,Dorset,,,,,50.71610894,-2.784889676,01/05/2022,30/09/2022,FALSE,,,,South West
ukh1406-10900,,Felixstowe_North,,,,East Suffolk,,,,,51.96034059,1.354985829,01/05/2022,30/09/2022,FALSE,,,,East of England
ukh1406-11000,,Felixstowe_South,,,,East Suffolk,,,,,51.95433041,1.341464361,01/05/2022,30/09/2022,FALSE,,,,East of England
ukj2402-15650,,Felpham,,,,Arun,,,,,50.78630588,-0.65257607,01/05/2022,30/09/2022,TRUE,,,,South East
uke2206-07600,,Filey,,,,Scarborough,,,,,54.20823726,-0.284226457,01/05/2022,30/09/2022,TRUE,,,,Yorkshire and The Humber
ukk3106-32200,,Fistral_North,,,,Cornwall,,,,,50.41773218,-5.09850303,01/05/2022,30/09/2022,FALSE,,,,South West
ukk3106-32150,,Fistral_South,,,,Cornwall,,,,,50.41416381,-5.101497644,01/05/2022,30/09/2022,FALSE,,,,South West
uke1200-07900,,Flamborough_South_Landing,,,,East Riding of Yorkshire,,,,,54.10424081,-0.118418582,01/05/2022,30/09/2022,FALSE,,,,Yorkshire and The Humber
ukd4312-43000,,Fleetwood,,,,Wyre,,,,,53.92659085,-3.019994651,01/05/2022,30/09/2022,TRUE,,,,North West
ukj4208-13300,,Folkestone,,,,Shepway,,,,,51.08197047,1.191271165,01/05/2022,30/09/2022,FALSE,,,,South East
ukd5300-41200,,Formby,,,,Sefton,,,,,53.54821805,-3.106258875,01/05/2022,30/09/2022,FALSE,,,,North West
uke1200-08300,,Fraisthorpe,,,,East Riding of Yorkshire,,,,,54.04855538,-0.214023771,01/05/2022,30/09/2022,TRUE,,,,Yorkshire and The Humber
ukj2310-11945,,Frensham_Great_Pond,,,,Waverley,,,,,51.15732271,-0.79183358,01/05/2022,30/09/2022,FALSE,,,,South East
ukh3311-11300,,Frinton,,,,Tendring,,,,,51.82778896,1.248309418,01/05/2022,30/09/2022,TRUE,,,,East of England
ukk3105-31450,,Godrevy_Towans,,,,Cornwall,,,,,50.23274436,-5.392021708,01/05/2022,30/09/2022,FALSE,,,,South West
ukk4200-24200,,Goodrington,,,,Torbay,,,,,50.42355515,-3.559492136,01/05/2022,30/09/2022,TRUE,,,,South West
ukh1303-10650,,Gorleston_Beach,,,,Great Yarmouth,,,,,52.56979184,1.733474174,01/05/2022,30/09/2022,FALSE,,,,East of England
ukk3106-28200,,Gorran_Haven_Little_Perhaver,,,,St. Goran,,,,,50.24084294,-4.787542868,01/05/2022,30/09/2022,TRUE,,,,South West
ukk3106-32310,,Great_Western,,,,Cornwall,,,,,50.41597606,-5.076566444,01/05/2022,30/09/2022,FALSE,,,,South West
ukh1303-10400,,Great_Yarmouth_North,,,,Great Yarmouth,,,,,52.63225858,1.742698731,01/05/2022,30/09/2022,FALSE,,,,East of England
ukh1303-10500,,Great_Yarmouth_Pier,,,,Great Yarmouth,,,,,52.60528559,1.739494757,01/05/2022,30/09/2022,FALSE,,,,East of England
ukh1303-10600,,Great_Yarmouth_South,,,,Great Yarmouth,,,,,52.59631497,1.738729916,01/05/2022,30/09/2022,FALSE,,,,East of England
ukj3400-17700,,Gurnard,,,,Isle of Wight,,,,,50.76074922,-1.325084135,01/05/2022,30/09/2022,TRUE,,,,South East
ukk3105-31400,,Gwithian_Towans,,,,Cornwall,,,,,50.22799616,-5.391890886,01/05/2022,30/09/2022,TRUE,,,,South West
ukk3105-30750,,Gwynver,,,,Cornwall,,,,,50.08931061,-5.688870996,01/05/2022,30/09/2022,FALSE,,,,South West
ukk3102-28600,,Gyllyngvase,,,,Cornwall,,,,,50.1446386,-5.067367724,01/05/2022,30/09/2022,FALSE,,,,South West
uki1101-11910,,Hampstead_Heath_Ladies_Pond,,,,City and County of the City of London,,,,,51.56673133,-0.160132016,01/05/2022,30/09/2022,FALSE,,,,London
uki1101-11920,,Hampstead_Heath_Mens_Pond,,,,City and County of the City of London,,,,,51.56334967,-0.156661552,01/05/2022,30/09/2022,FALSE,,,,London
uki1101-11930,,Hampstead_Heath_Mixed_Pond,,,,City and County of the City of London,,,,,51.56071288,-0.166289997,01/05/2022,30/09/2022,FALSE,,,,London
ukk3104-32900,,Harlyn_Bay,,,,Cornwall,,,,,50.54029491,-4.99727978,01/05/2022,30/09/2022,TRUE,,,,South West
ukk4307-33800,,Hartland_Quay,,,,Torridge,,,,,50.99554466,-4.533675439,01/05/2022,30/09/2022,FALSE,,,,South West
ukj2202-14100,,Hastings_Pelham_Beach,,,,Hastings,,,,,50.85354813,0.585766467,01/05/2022,30/09/2022,TRUE,,,,South East
ukd1103-44800,,Haverigg,,,,Copeland,,,,,54.18907005,-3.288823755,01/05/2022,30/09/2022,TRUE,,,,North West
ukk3105-31300,,Hayle_Towans,,,,Cornwall,,,,,50.20476829,-5.41701498,01/05/2022,30/09/2022,FALSE,,,,South West
ukh1304-09800,,Heacham,,,,King's Lynn and West Norfolk,,,,,52.90920424,0.471498093,01/05/2022,30/09/2022,TRUE,,,,East of England
ukh1303-10325,,Hemsby,,,,Great Yarmouth,,,,,52.69526817,1.71007377,01/05/2022,30/09/2022,FALSE,,,,East of England
ukk1100-36050,,Henleaze_Lake,,,,City of Bristol,,,,,51.49462419,-2.605704691,01/05/2022,30/09/2022,FALSE,,,,South West
ukj4202-12200,,Herne_Bay,,,,Canterbury,,,,,51.37436373,1.13950355,01/05/2022,30/09/2022,TRUE,,,,South East
ukj4202-12150,,Herne_Bay_Central,,,,Canterbury,,,,,51.37204661,1.11850745,01/05/2022,30/09/2022,TRUE,,,,South East
ukk2201-17300,,Highcliffe,,,,"Bournemouth, Christchurch and Poole",,,,,50.7369969,-1.698488827,01/05/2022,30/09/2022,FALSE,,,,South West
ukj3304-16850,,Hillhead,,,,Fareham,,,,,50.81345688,-1.225391921,01/05/2022,30/09/2022,TRUE,,,,South East
ukk2205-20970,,Hive,,,,Dorset,,,,,50.69626499,-2.72323665,01/05/2022,30/09/2022,FALSE,,,,South West
ukh3311-11350,,Holland,,,,Tendring,,,,,51.81320121,1.225798547,01/05/2022,30/09/2022,TRUE,,,,East of England
ukk4200-23900,,Hollicombe,,,,Torbay,,,,,50.44881754,-3.553519384,01/05/2022,30/09/2022,TRUE,,,,South West
ukk3102-32000,,Holywell_Bay,,,,Cornwall,,,,,50.39191135,-5.145505786,01/05/2022,30/09/2022,FALSE,,,,South West
ukk4305-25400,,Hope_Cove,,,,South Hams,,,,,50.24265037,-3.859110261,01/05/2022,30/09/2022,TRUE,,,,South West
uke1200-08700,,Hornsea,,,,East Riding of Yorkshire,,,,,53.91409844,-0.160491171,01/05/2022,30/09/2022,FALSE,,,,Yorkshire and The Humber
ukj2100-15000,,Hove,,,,The City of Brighton and Hove,,,,,50.82322818,-0.166723154,01/05/2022,30/09/2022,FALSE,,,,South East
uke1301-09020,,Humberston_Fitties,,,,North East Lincolnshire,,,,,53.53519013,0.008380462,01/05/2022,30/09/2022,TRUE,,,,Yorkshire and The Humber
ukh1304-09900,,Hunstanton_Old_Hunstanton,,,,King's Lynn and West Norfolk,,,,,52.95364208,0.496364281,01/05/2022,30/09/2022,TRUE,,,,East of England
ukh1304-09850,,Hunstanton_Main_Beach,,,,King's Lynn and West Norfolk,,,,,52.93682174,0.483787391,01/05/2022,30/09/2022,TRUE,,,,East of England
ukj4208-13500,,Hythe,,,,Shepway,,,,,51.06469169,1.081376963,01/05/2022,30/09/2022,FALSE,,,,South East
ukk4304-34600,,Ilfracombe_Hele,,,,North Devon,,,,,51.21086567,-4.097291581,01/05/2022,30/09/2022,TRUE,,,,South West
ukk4304-34450,,Ilfracombe_Tunnels_Beach,,,,North Devon,,,,,51.21045943,-4.127254415,01/05/2022,30/09/2022,FALSE,,,,South West
ukk4304-34500,,Ilfracombe_Wildersmouth,,,,North Devon,,,,,51.21052769,-4.121516139,01/05/2019,30/09/2019,TRUE,,,,South West
ukf3102-09600,,Ingoldmells_South,,,,East Lindsey,,,,,53.19393,0.35387,01/05/2022,30/09/2022,TRUE,,,,East Midlands
ukk4304-34000,,Instow,,,,Instow,,,,,51.05292191,-4.181923983,01/05/2017,30/09/2017,TRUE,,,,South West
ukh3311-11600,,Jaywick,,,,Tendring,,,,,51.77262974,1.112718024,01/05/2022,30/09/2022,FALSE,,,,East of England
ukj4210-12700,,"Joss_Bay,_Broadstairs",,,,Thanet,,,,,51.37922307,1.446105633,01/05/2022,30/09/2022,FALSE,,,,South East
ukk3103-29200,,Kennack_Sands,,,,Cornwall,,,,,50.00513456,-5.163575925,01/05/2022,30/09/2022,TRUE,,,,South West
ukk2204-19900,,Kimmeridge_Bay,,,,Dorset,,,,,50.61149388,-2.131423876,01/05/2022,30/09/2022,FALSE,,,,South West
ukk3101-26520,,Kingsand,,,,Cornwall,,,,,50.33361289,-4.199375823,01/05/2022,30/09/2022,FALSE,,,,South West
ukk4301-22000,,Ladram_Bay,,,,East Devon,,,,,50.65860514,-3.279551258,01/05/2022,30/09/2022,TRUE,,,,South West
ukj2401-15300,,"Lancing,_Beach_Green",,,,Adur,,,,,50.81988034,-0.321958812,01/05/2022,30/09/2022,TRUE,,,,South East
ukj3305-16800,,Lee-on-Solent,,,,Gosport,,,,,50.8009769,-1.204284188,01/05/2022,30/09/2022,FALSE,,,,South East
ukh3100-11904,,Leigh_Bell_Wharf,,,,Southend-on-Sea,,,,,51.53902984,0.652527405,01/05/2022,30/09/2022,TRUE,,,,East of England
ukj3308-17000,,Lepe,,,,Hampshire,,,,,50.78429687,-1.354534448,01/05/2022,30/09/2022,FALSE,,,,South East
ukj4209-12000,,Leysdown,,,,Swale,,,,,51.40015511,0.921786155,01/05/2022,30/09/2022,FALSE,,,,South East
ukj2402-15500,,Littlehampton,,,,Arun,,,,,50.8022939,-0.538868986,01/05/2022,30/09/2022,TRUE,,,,South East
ukj4208-13800,,Littlestone,,,,Shepway,,,,,50.97679965,0.967268605,01/05/2022,30/09/2022,FALSE,,,,South East
ukk3105-30300,,Long_Rock,,,,Cornwall,,,,,50.12635745,-5.518058309,01/05/2022,30/09/2022,TRUE,,,,South West
ukc2101-04000,,Low_Newton,,,,Northumberland,,,,,55.5132164,-1.615516765,01/05/2022,30/09/2022,FALSE,,,,North East
ukh1407-10750,,Lowestoft_North_of_Claremont_Pier,,,,East Suffolk,,,,,52.46830669,1.748744599,01/05/2022,30/09/2022,TRUE,,,,East of England
ukh1407-10800,,Lowestoft_South_of_Claremont_Pier,,,,East Suffolk,,,,,52.46388699,1.745158209,01/05/2022,30/09/2022,FALSE,,,,East of England
ukk2204-20000,,Lulworth_Cove,,,,Dorset,,,,,50.61893578,-2.249347333,01/05/2022,30/09/2022,TRUE,,,,South West
ukk3106-32330,,Lusty_Glaze,,,,Cornwall,,,,,50.42176963,-5.064973855,01/05/2022,30/09/2022,FALSE,,,,South West
ukk2205-21400,,Lyme_Regis_Church_Cliff_Beach,,,,Dorset,,,,,50.7250478,-2.930326956,01/05/2015,30/09/2015,TRUE,,,,South West
ukk2205-21500,,Lyme_Regis_Front_Beach,,,,Dorset,,,,,50.72250599,-2.937785012,01/05/2022,30/09/2022,TRUE,,,,South West
ukk4304-34800,,Lynmouth,,,,North Devon,,,,,51.23169038,-3.824480587,01/05/2022,30/09/2022,TRUE,,,,South West
ukf3102-09100,,Mablethorpe_Town,,,,East Lindsey,,,,,53.34413376,0.264365937,01/05/2022,30/09/2022,FALSE,,,,East Midlands
ukk3102-28800,,Maenporth,,,,Cornwall,,,,,50.12496244,-5.093534814,01/05/2022,30/09/2022,TRUE,,,,South West
ukk4200-23100,,Maidencombe,,,,Torbay,,,,,50.50645623,-3.513384658,01/05/2022,30/09/2022,FALSE,,,,South West
ukk3105-30200,,Marazion,,,,Cornwall,,,,,50.12650503,-5.480736172,01/05/2022,30/09/2022,TRUE,,,,South West
ukj4210-12600,,Margate_Fulsam_Rock,,,,Thanet,,,,,51.39268326,1.386499916,01/05/2022,30/09/2022,TRUE,,,,South East
ukj4210-12500,,Margate_The_Bay,,,,Thanet,,,,,51.38770455,1.37575226,01/05/2022,30/09/2022,FALSE,,,,South East
ukc2204-05400,,Marsden,,,,South Tyneside,,,,,54.9780179,-1.37659818,01/05/2022,30/09/2022,TRUE,,,,North East
ukc1202-06650,,Marske_Sands,,,,Redcar and Cleveland,,,,,54.59999193,-1.017076688,01/05/2022,30/09/2022,TRUE,,,,North East
ukk3106-32500,,Mawgan_Porth,,,,Cornwall,,,,,50.4674853,-5.033401124,01/05/2022,30/09/2022,TRUE,,,,South West
ukk4200-23600,,Meadfoot,,,,Torbay,,,,,50.45710033,-3.50920608,01/05/2022,30/09/2022,FALSE,,,,South West
ukd5400-40800,,Meols,,,,Wirral,,,,,53.40658428,-3.159742787,01/05/2022,30/09/2022,TRUE,,,,North West
ukk3105-31250,,Mexico_Towans,,,,Cornwall,,,,,50.20105427,-5.423747491,01/05/2022,30/09/2022,FALSE,,,,South West
ukj2402-15600,,Middleton-on-sea,,,,Arun,,,,,50.7902,-0.6039,01/05/2022,30/09/2022,FALSE,,,,South East
ukj3308-17100,,Milford-on-sea,,,,New Forest,,,,,50.725,-1.6106,01/05/2022,30/09/2022,FALSE,,,,South East
ukk4305-25100,,Mill_Bay,,,,South Hams,,,,,50.23000397,-3.766947202,01/05/2022,30/09/2022,FALSE,,,,South West
ukk3101-26900,,Millendreath,,,,Cornwall,,,,,50.36108838,-4.436303617,01/05/2022,30/09/2022,TRUE,,,,South West
ukk2305-35000,,Minehead_Terminus,,,,Somerset West and Taunton,,,,,51.20758144,-3.467056137,01/05/2022,30/09/2022,TRUE,,,,South West
ukj4210-12300,,"Minnis_Bay,_Birchington",,,,Thanet,,,,,51.38030383,1.283645527,01/05/2022,30/09/2022,FALSE,,,,South East
ukj4209-11975,,Minster_Leas,,,,Swale,,,,,51.43294443,0.805284293,01/05/2022,30/09/2022,FALSE,,,,South East
ukf3102-09300,,Moggs_Eye,,,,Lincolnshire,,,,,53.27300288,0.318438394,01/05/2022,30/09/2022,FALSE,,,,East Midlands
ukd4305-43550,,Morecambe_North,,,,Lancaster,,,,,54.07745174,-2.860746045,01/05/2022,30/09/2022,TRUE,,,,North West
ukd4305-43260,,Morecambe_South,,,,Lancaster,,,,,54.07282628,-2.876467624,01/05/2022,30/09/2022,TRUE,,,,North West
ukd5400-40900,,Moreton,,,,Wirral,,,,,53.41775605,-3.11942028,01/05/2022,30/09/2022,TRUE,,,,North West
ukk4305-26100,,Mothecombe,,,,South Hams,,,,,50.30959644,-3.952759061,01/05/2022,30/09/2022,TRUE,,,,South West
ukk3104-32800,,Mother_Iveys_Bay,,,,Cornwall,,,,,50.54414305,-5.015452105,01/05/2022,30/09/2022,FALSE,,,,South West
ukh1305-10300,,Mundesley,,,,North Norfolk,,,,,52.87694295,1.441741183,01/05/2022,30/09/2022,FALSE,,,,East of England
ukk4306-23000,,Ness_Cove,,,,Teignbridge,,,,,50.53611593,-3.498176245,01/05/2022,30/09/2022,FALSE,,,,South West
ukc2106-04400,,Newbiggin_North,,,,Northumberland,,,,,55.18441212,-1.510325608,01/05/2022,30/09/2022,FALSE,,,,North East
ukc2106-04500,,Newbiggin_South,,,,Northumberland,,,,,55.17885864,-1.514790312,01/05/2022,30/09/2022,FALSE,,,,North East
ukj2205-14300,,Normans_Bay,,,,Rother,,,,,50.82282416,0.38665585,01/05/2022,30/09/2022,FALSE,,,,South East
ukk3104-33650,,Northcott_Mouth,,,,Cornwall,,,,,50.84797546,-4.556912181,01/05/2022,30/09/2022,FALSE,,,,South West
ukk4200-23300,,Oddicombe,,,,Torbay,,,,,50.48246868,-3.514887512,01/05/2022,30/09/2022,FALSE,,,,South West
ukj2402-15800,,Pagham,,,,Arun,,,,,50.76755023,-0.736497733,01/05/2022,30/09/2022,FALSE,,,,South East
ukk4200-24100,,Paignton_Paignton_Sands,,,,Torbay,,,,,50.43507585,-3.558842813,01/05/2022,30/09/2022,TRUE,,,,South West
ukk4200-24000,,Paignton_Preston_Sands,,,,Torbay,,,,,50.4444648,-3.556193665,01/05/2022,30/09/2022,TRUE,,,,South West
ukk3106-27300,,Par_Sands,,,,Cornwall,,,,,50.34697222,-4.692824227,01/05/2022,30/09/2022,TRUE,,,,South West
ukk3102-28500,,Pendower,,,,Cornwall,,,,,50.20567006,-4.94779757,01/05/2022,30/09/2022,TRUE,,,,South West
ukk3106-27900,,Pentewan,,,,Cornwall,,,,,50.28755839,-4.782551303,01/05/2022,30/09/2022,FALSE,,,,South West
ukk3105-30400,,Penzance,,,,Cornwall,,,,,50.11467031,-5.535528967,01/05/2022,30/09/2022,TRUE,,,,South West
ukk3102-31800,,Perranporth,,,,Perranzabuloe,,,,,50.3493722,-5.155063576,01/05/2022,30/09/2022,TRUE,,,,South West
ukk3102-31900,,Perranporth_Penhale_Sands,,,,Cornwall,,,,,50.35936787,-5.151367607,01/05/2022,30/09/2022,FALSE,,,,South West
ukk3105-30100,,Perranuthnoe,,,,Cornwall,,,,,50.11225254,-5.442455808,01/05/2022,30/09/2022,FALSE,,,,South West
ukj2201-14400,,Pevensey_Bay,,,,Wealden,,,,,50.80998983,0.350328721,01/05/2022,30/09/2022,TRUE,,,,South East
ukk4100-26400,,Plymouth_Hoe_East,,,,City of Plymouth,,,,,50.3639371,-4.140876729,01/05/2022,30/09/2022,TRUE,,,,South West
ukk4100-26500,,Plymouth_Hoe_West,,,,City of Plymouth,,,,,50.36403135,-4.145521192,01/05/2022,30/09/2022,TRUE,,,,South West
ukk3103-29500,,Poldhu_Cove,,,,Cornwall,,,,,50.0335545,-5.261255341,01/05/2022,30/09/2022,TRUE,,,,South West
ukk3106-27200,,Polkerris,,,,Cornwall,,,,,50.3378795,-4.681487703,01/05/2022,30/09/2022,TRUE,,,,South West
ukk3106-28000,,Polstreath,,,,Cornwall,,,,,50.27438649,-4.784168971,01/05/2022,30/09/2022,FALSE,,,,South West
ukk3103-29400,,Polurrian_Cove,,,,Cornwall,,,,,50.02334991,-5.256234857,01/05/2022,30/09/2022,FALSE,,,,South West
ukk3104-33300,,Polzeath,,,,Cornwall,,,,,50.57482279,-4.916413197,01/05/2022,30/09/2022,TRUE,,,,South West
ukk2102-19170,,Poole_Branksome_Chine,,,,"Bournemouth, Christchurch and Poole",,,,,50.70591295,-1.909962704,01/05/2022,30/09/2022,FALSE,,,,South West
ukk2102-19190,,Poole_Canford_Cliffs_Chine,,,,"Bournemouth, Christchurch and Poole",,,,,50.70047102,-1.920522136,01/05/2022,30/09/2022,FALSE,,,,South West
ukk2102-19400,,Poole_Harbour_Lake,,,,"Bournemouth, Christchurch and Poole",,,,,50.71384921,-2.025269431,01/05/2022,30/09/2022,TRUE,,,,South West
ukk2102-19450,,Poole_Harbour_Rockley_Sands,,,,"Bournemouth, Christchurch and Poole",,,,,50.71933053,-2.040146169,01/05/2022,30/09/2022,TRUE,,,,South West
ukk2102-19350,,Poole_Sandbanks_Peninsular,,,,"Bournemouth, Christchurch and Poole",,,,,50.6887008,-1.937387882,01/05/2022,30/09/2022,FALSE,,,,South West
ukk2102-19200,,Poole_Shore_Road_Beach,,,,"Bournemouth, Christchurch and Poole",,,,,50.69466741,-1.929380684,01/05/2022,30/09/2022,FALSE,,,,South West
ukk2305-34900,,Porlock_Weir,,,,Somerset West and Taunton,,,,,51.21901929,-3.626264958,01/05/2022,30/09/2022,FALSE,,,,South West
ukk3106-32340,,Porth,,,,Cornwall,,,,,50.42467842,-5.056994712,01/05/2022,30/09/2022,TRUE,,,,South West
ukk3103-28900,,Porthallow,,,,Cornwall,,,,,50.06857734,-5.079280414,01/05/2022,30/09/2022,TRUE,,,,South West
ukk3104-32550,,Porthcothan,,,,Cornwall,,,,,50.50903186,-5.023510468,01/05/2022,30/09/2022,TRUE,,,,South West
ukk3102-28550,,Porthcurnick,,,,Cornwall,,,,,50.18614883,-4.97251413,01/05/2022,30/09/2022,TRUE,,,,South West
ukk3105-30600,,Porthcurno,,,,Cornwall,,,,,50.04291479,-5.650392859,01/05/2022,30/09/2022,FALSE,,,,South West
ukk3105-30900,,Porthgwidden,,,,Cornwall,,,,,50.2172112,-5.476652139,01/05/2022,30/09/2022,FALSE,,,,South West
ukk3105-31200,,Porthkidney_Sands,,,,Cornwall,,,,,50.19412162,-5.439377238,01/05/2022,30/09/2022,FALSE,,,,South West
ukk3103-29800,,Porthleven_Sands,,,,Cornwall,,,,,50.0810655,-5.314811298,01/05/2022,30/09/2022,FALSE,,,,South West
ukk3106-28400,,Porthluney,,,,Cornwall,,,,,50.23679312,-4.843266514,01/05/2022,30/09/2022,TRUE,,,,South West
ukk3105-30800,,Porthmeor,,,,Cornwall,,,,,50.21530002,-5.483383054,01/05/2022,30/09/2022,FALSE,,,,South West
ukk3105-31000,,Porthminster,,,,Cornwall,,,,,50.20867477,-5.476311469,01/05/2022,30/09/2022,FALSE,,,,South West
ukk3103-29000,,Porthoustock,,,,Cornwall,,,,,50.05557296,-5.064195115,01/05/2022,30/09/2022,FALSE,,,,South West
ukk3106-27800,,Porthpean,,,,Cornwall,,,,,50.32358232,-4.765687659,01/05/2022,30/09/2022,TRUE,,,,South West
ukk3102-31600,,Porthtowan,,,,Cornwall,,,,,50.28752162,-5.242416228,01/05/2022,30/09/2022,FALSE,,,,South West
ukk2206-20800,,Portland_Harbour_Castle_Cove,,,,Dorset,,,,,50.59632546,-2.459701174,01/05/2022,30/09/2022,TRUE,,,,South West
ukk2206-20900,,Portland_Harbour_Sandsfoot_Castle,,,,Dorset,,,,,50.59425076,-2.463566151,01/05/2022,30/09/2022,TRUE,,,,South West
ukk3106-28100,,Portmellon,,,,Cornwall,,,,,50.26185008,-4.785542345,01/05/2022,30/09/2022,TRUE,,,,South West
ukk3103-31500,,Portreath,,,,Cornwall,,,,,50.26123294,-5.293633127,01/05/2022,30/09/2022,FALSE,,,,South West
ukk3101-26600,,Portwrinkle,,,,Cornwall,,,,,50.36146499,-4.30766544,01/05/2022,30/09/2022,FALSE,,,,South West
ukk3103-29900,,Praa_Sands_East,,,,Cornwall,,,,,50.09928267,-5.378727095,01/05/2022,30/09/2022,FALSE,,,,South West
ukk3103-30000,,Praa_Sands_West,,,,Cornwall,,,,,50.10324578,-5.390895401,01/05/2022,30/09/2022,FALSE,,,,South West
ukk4304-34300,,Putsborough,,,,North Devon,,,,,51.14580971,-4.220904104,01/05/2022,30/09/2022,FALSE,,,,South West
ukj4210-12850,,Ramsgate_Sands,,,,Thanet,,,,,51.33223453,1.424873284,01/05/2022,30/09/2022,FALSE,,,,South East
ukj4210-12900,,Ramsgate_Western_Undercliffe,,,,Thanet,,,,,51.32660788,1.406234234,01/05/2022,30/09/2022,FALSE,,,,South East
ukk3106-27100,,Readymoney_Cove,,,,Cornwall,,,,,50.32953667,-4.645184998,01/05/2022,30/09/2022,TRUE,,,,South West
ukc1202-06300,,Redcar_Coatham,,,,Redcar and Cleveland,,,,,54.62206748,-1.081593055,01/05/2022,30/09/2022,FALSE,,,,North East
ukc1202-06500,,Redcar_Granville,,,,Redcar and Cleveland,,,,,54.61734809,-1.052276147,01/05/2022,30/09/2022,TRUE,,,,North East
ukc1202-06400,,Redcar_Lifeboat_Station,,,,Redcar and Cleveland,,,,,54.6200564,-1.060762,01/05/2022,30/09/2022,TRUE,,,,North East
ukc1202-06600,,Redcar_Stray,,,,Redcar and Cleveland,,,,,54.6055202,-1.033973134,01/05/2022,30/09/2022,TRUE,,,,North East
uke2206-07700,,Reighton,,,,Scarborough,,,,,54.16911791,-0.249814209,01/05/2022,30/09/2022,FALSE,,,,Yorkshire and The Humber
ukk2206-20300,,Ringstead_Bay,,,,Dorset,,,,,50.63105565,-2.351367651,01/05/2022,30/09/2022,FALSE,,,,South West
uke2206-07200,,Robin_Hoods_Bay,,,,Scarborough,,,,,54.43015375,-0.531866861,01/05/2022,30/09/2022,TRUE,,,,Yorkshire and The Humber
ukk3104-33100,,Rock,,,,Cornwall,,,,,50.54507058,-4.926292813,01/05/2015,30/09/2015,TRUE,,,,South West
ukc2300-05600,,Roker_-_Sunderland,,,,Sunderland,,,,,54.92574648,-1.364923293,01/05/2022,30/09/2022,FALSE,,,,North East
uke2206-06900,,Runswick_Bay,,,,Scarborough,,,,,54.53180833,-0.74870691,01/05/2022,30/09/2022,FALSE,,,,Yorkshire and The Humber
ukj3400-17900,,Ryde,,,,Isle of Wight,,,,,50.73082671,-1.149815998,01/05/2022,30/09/2022,TRUE,,,,South East
ukk4305-25200,,Salcombe_North_Sands,,,,South Hams,,,,,50.23015595,-3.780553445,01/05/2022,30/09/2022,TRUE,,,,South West
ukk4305-25300,,Salcombe_South_Sands,,,,South Hams,,,,,50.22605711,-3.783905778,01/05/2022,30/09/2022,TRUE,,,,South West
ukc1202-06700,,Saltburn,,,,Redcar and Cleveland,,,,,54.58679196,-0.969779716,01/05/2022,30/09/2022,TRUE,,,,North East
ukj2100-14800,,Saltdean,,,,The City of Brighton and Hove,,,,,50.79932437,-0.041711811,01/05/2022,30/09/2022,FALSE,,,,South East
ukj4208-13400,,Sandgate,,,,Shepway,,,,,51.07081526,1.121759226,01/05/2022,30/09/2022,FALSE,,,,South East
ukj3400-18400,,Sandown,,,,Isle of Wight,,,,,50.65496852,-1.150633919,01/05/2022,30/09/2022,TRUE,,,,South East
uke2206-07000,,Sandsend,,,,Scarborough,,,,,54.50137912,-0.667358439,01/05/2022,30/09/2022,TRUE,,,,Yorkshire and The Humber
ukj4204-13000,,Sandwich_Bay,,,,Dover,,,,,51.28260152,1.379623587,01/05/2022,30/09/2022,FALSE,,,,South East
ukk4301-22200,,Sandy_Bay,,,,East Devon,,,,,50.60988142,-3.368017632,01/05/2022,30/09/2022,FALSE,,,,South West
ukk3104-33700,,Sandymouth,,,,Cornwall,,,,,50.86093766,-4.556779938,01/05/2022,30/09/2022,FALSE,,,,South West
ukk4304-34100,,Saunton_Sands,,,,North Devon,,,,,51.11655331,-4.222358146,01/05/2022,30/09/2022,FALSE,,,,South West
uke2206-07300,,Scarborough_North_Bay,,,,Scarborough,,,,,54.29336479,-0.407208403,01/05/2022,30/09/2022,FALSE,,,,Yorkshire and The Humber
uke2206-07400,,Scarborough_South_Bay,,,,Scarborough,,,,,54.28203356,-0.395233782,01/05/2022,30/09/2022,FALSE,,,,Yorkshire and The Humber
ukh1305-10310,,Sea_Palling,,,,North Norfolk,,,,,52.79063975,1.603903982,01/05/2022,30/09/2022,FALSE,,,,East of England
ukc2300-05500,,Seaburn_-_Sunderland,,,,Sunderland,,,,,54.93752589,-1.366298597,01/05/2022,30/09/2022,FALSE,,,,North East
ukj2203-14600,,Seaford,,,,Lewes,,,,,50.77131708,0.094976507,01/05/2022,30/09/2022,FALSE,,,,South East
ukj3400-18000,,Seagrove,,,,Isle of Wight,,,,,50.71632406,-1.106875379,01/05/2022,30/09/2022,TRUE,,,,South East
ukc1404-05800,,Seaham_Beach,,,,County Durham,,,,,54.84751066,-1.338119693,01/05/2022,30/09/2022,TRUE,,,,North East
ukc1404-05700,,Seaham_Hall_Beach,,,,County Durham,,,,,54.85044966,-1.341498034,01/05/2022,30/09/2022,TRUE,,,,North East
ukc2102-03800,,Seahouses_North,,,,Northumberland,,,,,55.5901916,-1.666805897,01/05/2022,30/09/2022,FALSE,,,,North East
ukd1103-45600,,Seascale,,,,Copeland,,,,,54.39528257,-3.489357986,01/05/2022,30/09/2022,FALSE,,,,North West
ukk3101-26800,,Seaton_Cornwall,,,,Cornwall,,,,,50.36437217,-4.386411624,01/05/2022,30/09/2022,TRUE,,,,South West
ukk4301-21600,,Seaton_Devon,,,,East Devon,,,,,50.70337645,-3.070517581,01/05/2022,30/09/2022,TRUE,,,,South West
ukc1101-06100,,Seaton_Carew_Centre,,,,Hartlepool,,,,,54.65991277,-1.180727605,01/05/2022,30/09/2022,TRUE,,,,North East
ukc1101-06000,,Seaton_Carew_North,,,,Hartlepool,,,,,54.66466674,-1.186042767,01/05/2022,30/09/2022,TRUE,,,,North East
ukc1101-06200,,Seaton_Carew_North_Gare,,,,Hartlepool,,,,,54.64962983,-1.164661467,01/05/2022,30/09/2022,TRUE,,,,North East
ukc2103-04700,,Seaton_Sluice,,,,Northumberland,,,,,55.08722975,-1.47830017,01/05/2022,30/09/2022,TRUE,,,,North East
ukk2205-21200,,Seatown,,,,Dorset,,,,,50.72211014,-2.824826426,01/05/2022,30/09/2022,FALSE,,,,South West
ukj2403-15900,,Selsey,,,,Chichester,,,,,50.73631025,-0.77032903,01/05/2022,30/09/2022,FALSE,,,,South East
ukk3105-30700,,Sennen,,,,Cornwall,,,,,50.07875656,-5.69757685,01/05/2022,30/09/2022,FALSE,,,,South West
ukk4306-22900,,Shaldon,,,,Teignbridge,,,,,50.53983913,-3.502372774,01/05/2022,30/09/2022,TRUE,,,,South West
ukj3400-18500,,Shanklin,,,,Isle of Wight,,,,,50.62700956,-1.17317872,01/05/2022,30/09/2022,TRUE,,,,South East
ukk3101-26570,,Sharrow,,,,Cornwall,,,,,50.3476,-4.2596,01/05/2022,30/09/2022,FALSE,,,,South West
ukj4209-11950,,Sheerness,,,,Swale,,,,,51.44325944,0.760205649,01/05/2022,30/09/2022,FALSE,,,,South East
ukk2204-19600,,Shell_Bay_North,,,,Dorset,,,,,50.67845463,-1.948808899,01/05/2022,30/09/2022,FALSE,,,,South West
ukh1305-10100,,Sheringham,,,,North Norfolk,,,,,52.94593705,1.208480533,01/05/2022,30/09/2022,FALSE,,,,East of England
ukh3100-11770,,Shoebury_East,,,,Southend-on-Sea,,,,,51.53173297,0.8037999,01/05/2022,30/09/2022,TRUE,,,,East of England
ukh3100-11780,,Shoeburyness,,,,Southend-on-Sea,,,,,51.52299498,0.774140049,01/05/2022,30/09/2022,FALSE,,,,East of England
ukj2401-15200,,Shoreham_Beach,,,,Adur,,,,,50.82658667,-0.27132841,01/05/2022,30/09/2022,FALSE,,,,South East
ukk3106-27400,,Shorthorn_Beach,,,,Cornwall,,,,,50.33763518,-4.722934844,01/05/2022,30/09/2022,TRUE,,,,South West
ukk4301-21900,,Sidmouth_Jacobs_Ladder,,,,East Devon,,,,,50.67527087,-3.247919891,01/05/2022,30/09/2022,FALSE,,,,South West
ukk4301-21800,,Sidmouth_Town,,,,East Devon,,,,,50.67619627,-3.243022553,01/05/2022,30/09/2022,TRUE,,,,South West
ukd1103-45200,,Silecroft,,,,Copeland,,,,,54.21894706,-3.351102516,01/05/2022,30/09/2022,FALSE,,,,North West
ukd1101-46300,,Silloth,,,,Allerdale,,,,,54.86534537,-3.409142361,01/05/2017,30/09/2017,TRUE,,,,North West
ukf3102-09700,,Skegness,,,,East Lindsey,,,,,53.14414641,0.349547789,01/05/2022,30/09/2022,FALSE,,,,East Midlands
uke1200-08600,,Skipsea,,,,East Riding of Yorkshire,,,,,53.96194028,-0.190183487,01/05/2022,30/09/2022,FALSE,,,,Yorkshire and The Humber
ukk4305-24900,,Slapton_Sands_Monument,,,,South Hams,,,,,50.28593837,-3.645066662,01/05/2022,30/09/2022,FALSE,,,,South West
ukk4305-25000,,Slapton_Sands_Torcross,,,,South Hams,,,,,50.26623149,-3.652104828,01/05/2022,30/09/2022,FALSE,,,,South West
ukc2204-05300,,South_Shields,,,,South Tyneside,,,,,54.99974719,-1.409089561,01/05/2022,30/09/2022,FALSE,,,,North East
ukh3100-11902,,Southend_Chalkwell,,,,Southend-on-Sea,,,,,51.53739784,0.672910968,01/05/2022,30/09/2022,TRUE,,,,East of England
ukh3100-11830,,Southend_Jubilee,,,,Southend-on-Sea,,,,,51.52778563,0.723245133,01/05/2022,30/09/2022,TRUE,,,,East of England
ukh3100-11800,,Southend_Thorpe_Bay,,,,Southend-on-Sea,,,,,51.52887567,0.75359005,01/05/2022,30/09/2022,FALSE,,,,East of England
ukh3100-11850,,Southend_Three_Shells,,,,Southend-on-Sea,,,,,51.53299233,0.712019813,01/05/2022,30/09/2022,TRUE,,,,East of England
ukh3100-11900,,Southend_Westcliff_Bay,,,,Southend-on-Sea,,,,,51.53536879,0.686924508,01/05/2022,30/09/2022,FALSE,,,,East of England
ukd5300-41500,,Southport,,,,Sefton,,,,,53.65319124,-3.027301399,01/05/2022,30/09/2022,TRUE,,,,North West
ukj3100-16600,,Southsea_East,,,,City of Portsmouth,,,,,50.77866452,-1.079437834,01/05/2022,30/09/2022,FALSE,,,,South East
ukj2401-15100,,Southwick,,,,Adur,,,,,50.82875111,-0.235618078,01/05/2022,30/09/2022,FALSE,,,,South East
ukh1407-10850,,Southwold_The_Denes,,,,East Suffolk,,,,,52.31936197,1.678618832,01/05/2022,30/09/2022,TRUE,,,,East of England
ukh1407-10830,,Southwold_The_Pier,,,,East Suffolk,,,,,52.33079656,1.686909613,01/05/2022,30/09/2022,FALSE,,,,East of England
ukc2102-03600,,Spittal,,,,Northumberland,,,,,55.75686835,-1.98883938,01/05/2022,30/09/2022,TRUE,,,,North East
ukd4303-41800,,St_Annes,,,,Fylde,,,,,53.7491,-3.0404,01/05/2022,30/09/2022,TRUE,,,,North West
ukd4303-41900,,St_Annes_North,,,,Fylde,,,,,53.7597173,-3.050878218,01/05/2022,30/09/2022,TRUE,,,,North West
ukd1103-45920,,St_Bees,,,,Copeland,,,,,54.48992563,-3.60858869,01/05/2022,30/09/2022,TRUE,,,,North West
ukj3400-18100,,St_Helens,,,,Isle of Wight,,,,,50.69860767,-1.098645256,01/05/2022,30/09/2022,TRUE,,,,South East
ukj2202-14150,,St_Leonards,,,,Hastings,,,,,50.84991654,0.55142669,01/05/2022,30/09/2022,TRUE,,,,South East
ukj4204-13200,,St_Margarets_Bay,,,,Dover,,,,,51.15062708,1.385697567,01/05/2022,30/09/2022,FALSE,,,,South East
ukk4200-24600,,St_Marys_Bay_Devon,,,,Torbay,,,,,50.38525814,-3.503614468,01/05/2022,30/09/2022,FALSE,,,,South West
ukj4208-13700,,St_Marys_Bay_Kent,,,,Shepway,,,,,51.01059777,0.982258544,01/05/2022,30/09/2022,FALSE,,,,South East
ukj4210-12400,,"St_Mildreds_Bay,_Westgate",,,,Thanet,,,,,51.38489229,1.342726013,01/05/2022,30/09/2022,FALSE,,,,South East
uke2206-06800,,Staithes,,,,Scarborough,,,,,54.55863296,-0.789035906,01/05/2015,30/09/2015,FALSE,,,,Yorkshire and The Humber
ukj3305-16700,,Stokes_Bay,,,,Gosport,,,,,50.7775935,-1.150386997,01/05/2022,30/09/2022,FALSE,,,,South East
ukk2204-19700,,Studland_Knoll_House,,,,Dorset,,,,,50.65209856,-1.952854612,01/05/2022,30/09/2022,FALSE,,,,South West
ukk3104-33500,,Summerleaze,,,,Cornwall,,,,,50.83118072,-4.552028256,01/05/2022,30/09/2022,TRUE,,,,South West
ukf3102-09200,,Sutton-on-Sea,,,,East Lindsey,,,,,53.31458807,0.283819713,01/05/2022,30/09/2022,FALSE,,,,East Midlands
ukk2204-19800,,Swanage_Central,,,,Swanage,,,,,50.61344026,-1.957528826,01/05/2022,30/09/2022,TRUE,,,,South West
ukk3102-28700,,Swanpool,,,,Cornwall,,,,,50.14063735,-5.075790012,01/05/2022,30/09/2022,FALSE,,,,South West
ukj4202-12120,,Tankerton,,,,Canterbury,,,,,51.36544329,1.045785165,01/05/2022,30/09/2022,TRUE,,,,South East
ukk4306-22700,,Teignmouth_Holcombe,,,,Teignbridge,,,,,50.56190412,-3.47463851,01/05/2022,30/09/2022,FALSE,,,,South West
ukk4306-22800,,Teignmouth_Town,,,,Teignbridge,,,,,50.54538593,-3.493459527,01/05/2022,30/09/2022,TRUE,,,,South West
uki1106-11940,,The_Serpentine_-_Hyde_Park,,,,City of Westminster,,,,,51.50491379,-0.169107215,01/05/2022,30/09/2022,FALSE,,,,London
ukk4305-25600,,Thurlestone_North,,,,South Hams,,,,,50.26395979,-3.861792192,01/05/2022,30/09/2022,FALSE,,,,South West
ukk4305-25500,,Thurlestone_South,,,,South Hams,,,,,50.26042046,-3.858146594,01/05/2022,30/09/2022,FALSE,,,,South West
ukk3106-32320,,Tolcarne,,,,Cornwall,,,,,50.41767802,-5.073438598,01/05/2022,30/09/2022,FALSE,,,,South West
ukk4200-23800,,Torre_Abbey,,,,Torbay,,,,,50.46245994,-3.535988151,01/05/2022,30/09/2022,TRUE,,,,South West
ukj3400-17500,,Totland_Bay,,,,Isle of Wight,,,,,50.68083707,-1.545688567,01/05/2022,30/09/2022,FALSE,,,,South East
ukk3106-32300,,Towan,,,,Cornwall,,,,,50.41829308,-5.084178721,01/05/2022,30/09/2022,FALSE,,,,South West
ukk3104-33350,,Trebarwith_Strand,,,,Cornwall,,,,,50.64498148,-4.761609732,01/05/2022,30/09/2022,TRUE,,,,South West
ukk3101-26560,,Tregonhawke,,,,Cornwall,,,,,50.3408694,-4.242848418,01/05/2022,30/09/2022,FALSE,,,,South West
ukk3102-31700,,Trevaunance_Cove,,,,Cornwall,,,,,50.32040283,-5.201196356,01/05/2022,30/09/2022,FALSE,,,,South West
ukk3104-33000,,Trevone_Bay,,,,Cornwall,,,,,50.54575182,-4.977438588,01/05/2022,30/09/2022,TRUE,,,,South West
ukk3104-32600,,Treyarnon_Bay,,,,Cornwall,,,,,50.52614597,-5.022629485,01/05/2022,30/09/2022,FALSE,,,,South West
uke1200-08800,,Tunstall,,,,East Riding of Yorkshire,,,,,53.7589043,0.000169098,01/05/2022,30/09/2022,FALSE,,,,Yorkshire and The Humber
ukc2203-04900,,Tynemouth_Cullercoats,,,,North Tyneside,,,,,55.03478136,-1.431026431,01/05/2022,30/09/2022,TRUE,,,,North East
ukc2203-05200,,Tynemouth_King_Edwards_Bay,,,,North Tyneside,,,,,55.01932211,-1.418999137,01/05/2022,30/09/2022,FALSE,,,,North East
ukc2203-05000,,Tynemouth_Long_Sands_North,,,,North Tyneside,,,,,55.03042103,-1.428678948,01/05/2022,30/09/2022,FALSE,,,,North East
ukc2203-05100,,Tynemouth_Long_Sands_South,,,,North Tyneside,,,,,55.02407823,-1.423278822,01/05/2022,30/09/2022,FALSE,,,,North East
ukk3105-31350,,Upton_Towans,,,,Cornwall,,,,,50.21519014,-5.402860765,01/05/2022,30/09/2022,FALSE,,,,South West
ukk3106-28300,,Vault_Beach,,,,Cornwall,,,,,50.23490423,-4.787617015,01/05/2022,30/09/2022,FALSE,,,,South West
ukj3400-18600,,Ventnor,,,,Isle of Wight,,,,,50.59312726,-1.209967684,01/05/2022,30/09/2022,FALSE,,,,South East
ukd5400-41000,,Wallasey,,,,Wirral,,,,,53.43357853,-3.077282921,01/05/2022,30/09/2022,FALSE,,,,North West
ukd1102-44200,,Walney_Biggar_Bank,,,,Barrow-in-Furness,,,,,54.0950168,-3.258381294,01/05/2022,30/09/2022,TRUE,,,,North West
ukd1102-44300,,Walney_Sandy_Gap,,,,Barrow-in-Furness,,,,,54.10215699,-3.263185667,01/05/2022,30/09/2022,TRUE,,,,North West
ukd1102-44400,,Walney_West_Shore,,,,Barrow-in-Furness,,,,,54.12078226,-3.27163117,01/05/2022,30/09/2022,TRUE,,,,North West
ukj4210-12630,,"Walpole_Bay,_Margate",,,,Thanet,,,,,51.39225537,1.399092054,01/05/2022,30/09/2022,FALSE,,,,South East
ukh3311-11250,,Walton,,,,Tendring,,,,,51.84705731,1.273239241,01/05/2022,30/09/2022,TRUE,,,,East of England
ukc2101-04200,,Warkworth,,,,Northumberland,,,,,55.35121368,-1.592800275,01/05/2022,30/09/2022,FALSE,,,,North East
ukk4200-23200,,Watcombe,,,,Torbay,,,,,50.49563904,-3.515294772,01/05/2022,30/09/2022,TRUE,,,,South West
ukk3106-32400,,Watergate_Bay,,,,Cornwall,,,,,50.44376703,-5.042589133,01/05/2022,30/09/2022,FALSE,,,,South West
ukh1305-10000,,Wells,,,,North Norfolk,,,,,52.97358259,0.849053395,01/05/2022,30/09/2022,TRUE,,,,East of England
ukk4305-26200,,Wembury,,,,South Hams,,,,,50.31799954,-4.085149698,01/05/2022,30/09/2022,TRUE,,,,South West
ukk2205-21000,,"West_Bay,_Westgate",,,,Dorset,,,,,50.7109882,-2.766547734,01/05/2022,30/09/2022,TRUE,,,,South West
ukj4210-12350,,West_Bay_West,,,,Thanet,,,,,51.38320256,1.332267285,01/05/2022,30/09/2022,FALSE,,,,South East
ukj4202-12100,,"West_Beach,_Whitstable",,,,Canterbury,,,,,51.35433497,1.011721531,01/05/2022,30/09/2022,FALSE,,,,South East
ukd5400-40750,,West_Kirby,,,,Wirral,,,,,53.37047893,-3.193165766,01/05/2022,30/09/2022,FALSE,,,,North West
ukh3306-11750,,West_Mersea,,,,Colchester,,,,,51.77039909,0.930194911,01/05/2022,30/09/2022,FALSE,,,,East of England
ukh1305-10125,,West_Runton,,,,North Norfolk,,,,,52.94168221,1.252766632,01/05/2022,30/09/2022,FALSE,,,,East of England
ukj2403-16100,,West_Wittering,,,,Chichester,,,,,50.77651459,-0.912129642,01/05/2022,30/09/2022,FALSE,,,,South East
ukj4210-12450,,"Westbrook_Bay,_Margate",,,,Thanet,,,,,51.38614289,1.363130237,01/05/2022,30/09/2022,FALSE,,,,South East
ukk1202-35800,,Weston-super-Mare_Sand_Bay,,,,North Somerset,,,,,51.34126129,-2.983382211,01/05/2022,30/09/2022,TRUE,,,,South West
ukk1202-35900,,Weston-super-Mare_Uphill_Slipway,,,,North Somerset,,,,,51.36448756,-2.966097066,01/05/2022,30/09/2022,TRUE,,,,South West
ukk1202-35700,,Weston_Main,,,,North Somerset,,,,,51.32472047,-2.99031891,01/05/2022,30/09/2022,TRUE,,,,South West
ukk4307-33900,,Westward_Ho!,,,,Torridge,,,,,51.04377497,-4.236162882,01/05/2022,30/09/2022,FALSE,,,,South West
ukk2206-20700,,Weymouth_Central,,,,Dorset,,,,,50.61446637,-2.452245703,01/05/2022,30/09/2022,FALSE,,,,South West
ukk2206-20600,,Weymouth_Lodmoor,,,,Dorset,,,,,50.62589003,-2.442176376,01/05/2022,30/09/2022,FALSE,,,,South West
uke4100-08901,,"Wharfe_at_Cromwheel,_Ilkley",,,,Bradford,,,,,53.9319,-1.8162,01/05/2022,30/09/2022,FALSE,,,,Yorkshire and The Humber
ukk3105-30500,,Wherry_Town,,,,Cornwall,,,,,50.10892699,-5.544846226,01/05/2022,30/09/2022,TRUE,,,,South West
uke2206-07100,,Whitby,,,,Scarborough,,,,,54.49169671,-0.624582898,01/05/2022,30/09/2022,FALSE,,,,Yorkshire and The Humber
ukj3400-18300,,Whitecliff_Bay,,,,Isle of Wight,,,,,50.67195468,-1.0942733,01/05/2022,30/09/2022,FALSE,,,,South East
ukc2203-04800,,Whitley_Bay,,,,North Tyneside,,,,,55.048892,-1.445147644,01/05/2022,30/09/2022,FALSE,,,,North East
ukk3104-33400,,Widemouth_Sand,,,,Cornwall,,,,,50.79310223,-4.557615492,01/05/2022,30/09/2022,TRUE,,,,South West
uke1200-08200,,Wilsthorpe,,,,East Riding of Yorkshire,,,,,54.06621993,-0.207488045,01/05/2022,30/09/2022,TRUE,,,,Yorkshire and The Humber
ukj2204-14000,,Winchelsea,,,,Rother,,,,,50.9064145,0.718105662,01/05/2022,30/09/2022,FALSE,,,,South East
ukd1203-45700,,"Windermere,_Fellfoot",,,,South Lakeland,,,,,54.27451694,-2.953781739,01/05/2022,30/09/2022,FALSE,,,,North West
ukd1203-45625,,"Windermere,_Lakeside_YMCA",,,,South Lakeland,,,,,54.30039495,-2.961462962,01/05/2022,30/09/2022,FALSE,,,,North West
ukd1203-45650,,"Windermere,_Millerground_Landing",,,,South Lakeland,,,,,54.3807,-2.9225,01/05/2022,30/09/2022,FALSE,,,,North West
ukd1203-45675,,"Windermere,_Rayrigg_Meadow",,,,South Lakeland,,,,,54.37815373,-2.922496442,01/05/2022,30/09/2022,FALSE,,,,North West
uke1200-08900,,Withernsea,,,,East Riding of Yorkshire,,,,,53.7308197,0.036007805,01/05/2022,30/09/2022,FALSE,,,,Yorkshire and The Humber
ukj1402-11946,,Wolvercote_Mill_Stream,,,,Oxford,,,,,51.78082,-1.29596,01/05/2022,30/09/2022,FALSE,,,,South East
ukk4304-34400,,Woolacombe_Village,,,,North Devon,,,,,51.17165327,-4.209699924,01/05/2022,30/09/2022,TRUE,,,,South West
ukj2407-15400,,Worthing,,,,Worthing,,,,,50.80727818,-0.384860538,01/05/2022,30/09/2022,TRUE,,,,South East
ukj3400-18350,,Yaverland,,,,Isle of Wight,,,,,50.661819,-1.133235104,01/05/2022,30/09/2022,FALSE,,,,South East
